{"type": "FeatureCollection", "features": [{"type": "Feature", "geometry": {"type": "Polygon", "coordinates": [[[110.28443146, -7.95659971], [110.28553009, -7.94128466], [110.294487, -7.94329977], [110.30548859, -7.9348464], [110.30405426, -7.92316055], [110.31432343, -7.92024851], [110.34708405, -7.91909266], [110.33275604, -7.93797255], [110.32106018, -7.96302223], [110.32318878, -7.97304678], [110.30963135, -7.97079277], [110.28731537, -7.96137094], [110.28443146, -7.95659971]]]}, "properties": {"fid": 615, "GID_0": "IDN", "NAME_0": "Indonesia", "GID_1": "IDN.5_1", "NAME_1": "DI Yogyakarta", "NL_NAME_1": null, "GID_2": "IDN.5.1_1", "NAME_2": "Bantul", "NL_NAME_2": null, "GID_3": "IDN.5.1.1_1", "NAME_3": "Bambanglipuro", "VARNAME_3": null, "NL_NAME_3": null, "TYPE_3": "Kecamatan", "ENGTYPE_3": "Sub-district", "CC_3": "3402050", "HASC_3": null}, "id": 615}, {"type": "Feature", "geometry": {"type": "Polygon", "coordinates": [[[110.42055511, -7.86410713], [110.3964386, -7.86139631], [110.37583923, -7.85402775], [110.38160706, -7.84683228], [110.37497711, -7.83084345], [110.39375305, -7.82775021], [110.40479279, -7.82261658], [110.39757538, -7.8022337], [110.39620209, -7.79078388], [110.39711761, -7.78828955], [110.42160034, -7.79057503], [110.42156982, -7.82138109], [110.42993927, -7.83583355], [110.42987061, -7.85204124], [110.42055511, -7.86410713]]]}, "properties": {"fid": 616, "GID_0": "IDN", "NAME_0": "Indonesia", "GID_1": "IDN.5_1", "NAME_1": "DI Yogyakarta", "NL_NAME_1": null, "GID_2": "IDN.5.2_1", "NAME_2": "Bantul", "NL_NAME_2": null, "GID_3": "IDN.5.2.1_1", "NAME_3": "Banguntapan", "VARNAME_3": null, "NL_NAME_3": null, "TYPE_3": "Kecamatan", "ENGTYPE_3": "Sub-district", "CC_3": "3402130", "HASC_3": null}, "id": 616}, {"type": "Feature", "geometry": {"type": "Polygon", "coordinates": [[[110.31432343, -7.92024851], [110.31451416, -7.90478754], [110.31007385, -7.89027643], [110.31969452, -7.87856007], [110.32394409, -7.86178875], [110.33627319, -7.87867308], [110.35112762, -7.88694096], [110.36339569, -7.88657045], [110.36187744, -7.89587021], [110.34732056, -7.90851259], [110.34708405, -7.91909266], [110.31432343, -7.92024851]]]}, "properties": {"fid": 617, "GID_0": "IDN", "NAME_0": "Indonesia", "GID_1": "IDN.5_1", "NAME_1": "DI Yogyakarta", "NL_NAME_1": null, "GID_2": "IDN.5.2_1", "NAME_2": "Bantul", "NL_NAME_2": null, "GID_3": "IDN.5.2.1_1", "NAME_3": "Bantul", "VARNAME_3": null, "NL_NAME_3": null, "TYPE_3": "Kecamatan", "ENGTYPE_3": "Sub-district", "CC_3": "3402070", "HASC_3": null}, "id": 617}, {"type": "Feature", "geometry": {"type": "Polygon", "coordinates": [[[110.43292236, -7.96432781], [110.42484283, -7.95406294], [110.42765808, -7.94285965], [110.40756226, -7.93610096], [110.42581177, -7.92602301], [110.43056488, -7.91704845], [110.43066406, -7.90071487], [110.44670868, -7.88625479], [110.45471954, -7.87270069], [110.46754456, -7.86670828], [110.47686768, -7.88828182], [110.49510193, -7.89097023], [110.49829865, -7.90084362], [110.49347687, -7.93139887], [110.48781586, -7.94517803], [110.47625732, -7.94367218], [110.47047424, -7.96210146], [110.45487976, -7.95163774], [110.443573, -7.9520545], [110.44100189, -7.96745825], [110.43292236, -7.96432781]]]}, "properties": {"fid": 618, "GID_0": "IDN", "NAME_0": "Indonesia", "GID_1": "IDN.5_1", "NAME_1": "DI Yogyakarta", "NL_NAME_1": null, "GID_2": "IDN.5.2_1", "NAME_2": "Bantul", "NL_NAME_2": null, "GID_3": "IDN.5.2.2_1", "NAME_3": "Dlingo", "VARNAME_3": null, "NL_NAME_3": null, "TYPE_3": "Kecamatan", "ENGTYPE_3": "Sub-district", "CC_3": "3402100", "HASC_3": null}, "id": 618}, {"type": "Feature", "geometry": {"type": "Polygon", "coordinates": [[[110.43292236, -7.96432781], [110.42204285, -7.9735055], [110.39741516, -7.96990013], [110.39176178, -7.9805994], [110.38085175, -7.9820447], [110.36724854, -7.9733758], [110.36390686, -7.96213436], [110.36595154, -7.94516516], [110.36695099, -7.92116642], [110.38587952, -7.8980422], [110.39962769, -7.89687395], [110.42155457, -7.89301538], [110.43066406, -7.90071487], [110.43056488, -7.91704845], [110.42581177, -7.92602301], [110.40756226, -7.93610096], [110.42765808, -7.94285965], [110.42484283, -7.95406294], [110.43292236, -7.96432781]]]}, "properties": {"fid": 619, "GID_0": "IDN", "NAME_0": "Indonesia", "GID_1": "IDN.5_1", "NAME_1": "DI Yogyakarta", "NL_NAME_1": null, "GID_2": "IDN.5.2_1", "NAME_2": "Bantul", "NL_NAME_2": null, "GID_3": "IDN.5.2.3_1", "NAME_3": "Imogiri", "VARNAME_3": null, "NL_NAME_3": null, "TYPE_3": "Kecamatan", "ENGTYPE_3": "Sub-district", "CC_3": "3402090", "HASC_3": null}, "id": 619}, {"type": "Feature", "geometry": {"type": "Polygon", "coordinates": [[[110.36595154, -7.94516516], [110.35384369, -7.94604445], [110.33275604, -7.93797255], [110.34708405, -7.91909266], [110.34732056, -7.90851259], [110.36187744, -7.89587021], [110.36339569, -7.88657045], [110.376297, -7.88233852], [110.38128662, -7.87406015], [110.39714813, -7.87933254], [110.39962769, -7.89687395], [110.38587952, -7.8980422], [110.36695099, -7.92116642], [110.36595154, -7.94516516]]]}, "properties": {"fid": 620, "GID_0": "IDN", "NAME_0": "Indonesia", "GID_1": "IDN.5_1", "NAME_1": "DI Yogyakarta", "NL_NAME_1": null, "GID_2": "IDN.5.2_1", "NAME_2": "Bantul", "NL_NAME_2": null, "GID_3": "IDN.5.2.4_1", "NAME_3": "Jetis", "VARNAME_3": null, "NL_NAME_3": null, "TYPE_3": "Kecamatan", "ENGTYPE_3": "Sub-district", "CC_3": "3402080", "HASC_3": null}, "id": 620}, {"type": "Feature", "geometry": {"type": "Polygon", "coordinates": [[[110.28421021, -7.83591795], [110.28830719, -7.8332119], [110.31698608, -7.81988764], [110.31478119, -7.80891418], [110.33011627, -7.80480766], [110.34364319, -7.79186392], [110.35102844, -7.76822138], [110.34883881, -7.79290295], [110.34462738, -7.80687809], [110.35153198, -7.81350088], [110.35182953, -7.82572556], [110.34391785, -7.85003471], [110.32924652, -7.84810781], [110.32432556, -7.86133051], [110.31817627, -7.85531855], [110.2986145, -7.85180998], [110.28640747, -7.85657263], [110.28055573, -7.84620047], [110.28421021, -7.83591795]]]}, "properties": {"fid": 621, "GID_0": "IDN", "NAME_0": "Indonesia", "GID_1": "IDN.5_1", "NAME_1": "DI Yogyakarta", "NL_NAME_1": null, "GID_2": "IDN.5.2_1", "NAME_2": "Bantul", "NL_NAME_2": null, "GID_3": "IDN.5.2.5_1", "NAME_3": "Kasihan", "VARNAME_3": null, "NL_NAME_3": null, "TYPE_3": "Kecamatan", "ENGTYPE_3": "Sub-district", "CC_3": "3402150", "HASC_3": null}, "id": 621}, {"type": "Feature", "geometry": {"type": "Polygon", "coordinates": [[[110.32923126, -8.00613308], [110.3400116, -8.02804661], [110.27501678, -8.00948238], [110.29019165, -7.98020744], [110.28901672, -7.96772528], [110.27675629, -7.95676613], [110.28443146, -7.95659971], [110.28731537, -7.96137094], [110.30963135, -7.97079277], [110.32318878, -7.97304678], [110.32833862, -7.98190928], [110.31705475, -7.98868847], [110.32923126, -8.00613308]]]}, "properties": {"fid": 622, "GID_0": "IDN", "NAME_0": "Indonesia", "GID_1": "IDN.5_1", "NAME_1": "DI Yogyakarta", "NL_NAME_1": null, "GID_2": "IDN.5.2_1", "NAME_2": "Bantul", "NL_NAME_2": null, "GID_3": "IDN.5.2.6_1", "NAME_3": "Kretek", "VARNAME_3": null, "NL_NAME_3": null, "TYPE_3": "Kecamatan", "ENGTYPE_3": "Sub-district", "CC_3": "3402030", "HASC_3": null}, "id": 622}, {"type": "Feature", "geometry": {"type": "Polygon", "coordinates": [[[110.27391815, -7.90962172], [110.26869202, -7.88525581], [110.25395203, -7.86408472], [110.26715088, -7.83682346], [110.28421021, -7.83591795], [110.28055573, -7.84620047], [110.28640747, -7.85657263], [110.2986145, -7.85180998], [110.31817627, -7.85531855], [110.32432556, -7.86133051], [110.32394409, -7.86178875], [110.31969452, -7.87856007], [110.31007385, -7.89027643], [110.28445435, -7.89690971], [110.27391815, -7.90962172]]]}, "properties": {"fid": 623, "GID_0": "IDN", "NAME_0": "Indonesia", "GID_1": "IDN.5_1", "NAME_1": "DI Yogyakarta", "NL_NAME_1": null, "GID_2": "IDN.5.2_1", "NAME_2": "Bantul", "NL_NAME_2": null, "GID_3": "IDN.5.2.7_1", "NAME_3": "Pajangan", "VARNAME_3": null, "NL_NAME_3": null, "TYPE_3": "Kecamatan", "ENGTYPE_3": "Sub-district", "CC_3": "3402160", "HASC_3": null}, "id": 623}, {"type": "Feature", "geometry": {"type": "Polygon", "coordinates": [[[110.28443146, -7.95659971], [110.27675629, -7.95676613], [110.25486755, -7.95331097], [110.26462555, -7.94778013], [110.27065277, -7.9259572], [110.27391815, -7.90962172], [110.28445435, -7.89690971], [110.31007385, -7.89027643], [110.31451416, -7.90478754], [110.31432343, -7.92024851], [110.30405426, -7.92316055], [110.30548859, -7.9348464], [110.294487, -7.94329977], [110.28553009, -7.94128466], [110.28443146, -7.95659971]]]}, "properties": {"fid": 624, "GID_0": "IDN", "NAME_0": "Indonesia", "GID_1": "IDN.5_1", "NAME_1": "DI Yogyakarta", "NL_NAME_1": null, "GID_2": "IDN.5.2_1", "NAME_2": "Bantul", "NL_NAME_2": null, "GID_3": "IDN.5.2.8_1", "NAME_3": "Pandak", "VARNAME_3": null, "NL_NAME_3": null, "TYPE_3": "Kecamatan", "ENGTYPE_3": "Sub-district", "CC_3": "3402060", "HASC_3": null}, "id": 624}, {"type": "Feature", "geometry": {"type": "Polygon", "coordinates": [[[110.42993927, -7.83583355], [110.44379425, -7.82392979], [110.4602356, -7.81967258], [110.47936249, -7.82490063], [110.48551178, -7.81845093], [110.49215698, -7.82276487], [110.51009369, -7.82288647], [110.51951599, -7.83097363], [110.51633453, -7.83762693], [110.49005127, -7.83765221], [110.4839325, -7.84038639], [110.46754456, -7.86670828], [110.45471954, -7.87270069], [110.44005585, -7.86511755], [110.42919922, -7.87146854], [110.42055511, -7.86410713], [110.42987061, -7.85204124], [110.42993927, -7.83583355]]]}, "properties": {"fid": 625, "GID_0": "IDN", "NAME_0": "Indonesia", "GID_1": "IDN.5_1", "NAME_1": "DI Yogyakarta", "NL_NAME_1": null, "GID_2": "IDN.5.2_1", "NAME_2": "Bantul", "NL_NAME_2": null, "GID_3": "IDN.5.2.9_1", "NAME_3": "Piyungan", "VARNAME_3": null, "NL_NAME_3": null, "TYPE_3": "Kecamatan", "ENGTYPE_3": "Sub-district", "CC_3": "3402120", "HASC_3": null}, "id": 625}, {"type": "Feature", "geometry": {"type": "Polygon", "coordinates": [[[110.39962769, -7.89687395], [110.39714813, -7.87933254], [110.38128662, -7.87406015], [110.37583923, -7.85402775], [110.3964386, -7.86139631], [110.42055511, -7.86410713], [110.42919922, -7.87146854], [110.44005585, -7.86511755], [110.45471954, -7.87270069], [110.44670868, -7.88625479], [110.43066406, -7.90071487], [110.42155457, -7.89301538], [110.39962769, -7.89687395]]]}, "properties": {"fid": 626, "GID_0": "IDN", "NAME_0": "Indonesia", "GID_1": "IDN.5_1", "NAME_1": "DI Yogyakarta", "NL_NAME_1": null, "GID_2": "IDN.5.2_1", "NAME_2": "Bantul", "NL_NAME_2": null, "GID_3": "IDN.5.2.10_1", "NAME_3": "Pleret", "VARNAME_3": null, "NL_NAME_3": null, "TYPE_3": "Kecamatan", "ENGTYPE_3": "Sub-district", "CC_3": "3402110", "HASC_3": null}, "id": 626}, {"type": "Feature", "geometry": {"type": "Polygon", "coordinates": [[[110.32923126, -8.00613308], [110.31705475, -7.98868847], [110.32833862, -7.98190928], [110.32318878, -7.97304678], [110.32106018, -7.96302223], [110.33275604, -7.93797255], [110.35384369, -7.94604445], [110.36595154, -7.94516516], [110.36390686, -7.96213436], [110.36724854, -7.9733758], [110.35604095, -7.97886133], [110.35015869, -7.98867178], [110.3312149, -7.99894094], [110.32923126, -8.00613308]]]}, "properties": {"fid": 627, "GID_0": "IDN", "NAME_0": "Indonesia", "GID_1": "IDN.5_1", "NAME_1": "DI Yogyakarta", "NL_NAME_1": null, "GID_2": "IDN.5.2_1", "NAME_2": "Bantul", "NL_NAME_2": null, "GID_3": "IDN.5.2.11_1", "NAME_3": "Pundong", "VARNAME_3": null, "NL_NAME_3": null, "TYPE_3": "Kecamatan", "ENGTYPE_3": "Sub-district", "CC_3": "3402040", "HASC_3": null}, "id": 627}, {"type": "Feature", "geometry": {"type": "Polygon", "coordinates": [[[110.27501678, -8.00948238], [110.2417984, -7.99733448], [110.24298096, -7.96847868], [110.25486755, -7.95331097], [110.27675629, -7.95676613], [110.28901672, -7.96772528], [110.29019165, -7.98020744], [110.27501678, -8.00948238]]]}, "properties": {"fid": 628, "GID_0": "IDN", "NAME_0": "Indonesia", "GID_1": "IDN.5_1", "NAME_1": "DI Yogyakarta", "NL_NAME_1": null, "GID_2": "IDN.5.2_1", "NAME_2": "Bantul", "NL_NAME_2": null, "GID_3": "IDN.5.2.12_1", "NAME_3": "Sanden", "VARNAME_3": null, "NL_NAME_3": null, "TYPE_3": "Kecamatan", "ENGTYPE_3": "Sub-district", "CC_3": "3402020", "HASC_3": null}, "id": 628}, {"type": "Feature", "geometry": {"type": "Polygon", "coordinates": [[[110.23342896, -7.81499577], [110.23735809, -7.80905771], [110.27574158, -7.7918129], [110.28692627, -7.78412676], [110.29039001, -7.79383898], [110.28202057, -7.806252], [110.28830719, -7.8332119], [110.28421021, -7.83591795], [110.26715088, -7.83682346], [110.25395203, -7.86408472], [110.22312927, -7.84015226], [110.23335266, -7.82460976], [110.23342896, -7.81499577]]]}, "properties": {"fid": 629, "GID_0": "IDN", "NAME_0": "Indonesia", "GID_1": "IDN.5_1", "NAME_1": "DI Yogyakarta", "NL_NAME_1": null, "GID_2": "IDN.5.2_1", "NAME_2": "Bantul", "NL_NAME_2": null, "GID_3": "IDN.5.2.13_1", "NAME_3": "Sedayu", "VARNAME_3": null, "NL_NAME_3": null, "TYPE_3": "Kecamatan", "ENGTYPE_3": "Sub-district", "CC_3": "3402170", "HASC_3": null}, "id": 629}, {"type": "Feature", "geometry": {"type": "Polygon", "coordinates": [[[110.38128662, -7.87406015], [110.376297, -7.88233852], [110.36339569, -7.88657045], [110.35112762, -7.88694096], [110.33627319, -7.87867308], [110.32394409, -7.86178875], [110.32432556, -7.86133051], [110.32924652, -7.84810781], [110.34391785, -7.85003471], [110.35182953, -7.82572556], [110.36719513, -7.82657337], [110.37503052, -7.82442141], [110.37497711, -7.83084345], [110.38160706, -7.84683228], [110.37583923, -7.85402775], [110.38128662, -7.87406015]]]}, "properties": {"fid": 630, "GID_0": "IDN", "NAME_0": "Indonesia", "GID_1": "IDN.5_1", "NAME_1": "DI Yogyakarta", "NL_NAME_1": null, "GID_2": "IDN.5.2_1", "NAME_2": "Bantul", "NL_NAME_2": null, "GID_3": "IDN.5.2.14_1", "NAME_3": "Sewon", "VARNAME_3": null, "NL_NAME_3": null, "TYPE_3": "Kecamatan", "ENGTYPE_3": "Sub-district", "CC_3": "3402140", "HASC_3": null}, "id": 630}, {"type": "Feature", "geometry": {"type": "Polygon", "coordinates": [[[110.20529938, -7.98387527], [110.21472931, -7.97864103], [110.23168945, -7.95969582], [110.24407959, -7.93464136], [110.25708771, -7.9234004], [110.27065277, -7.9259572], [110.26462555, -7.94778013], [110.25486755, -7.95331097], [110.24298096, -7.96847868], [110.2417984, -7.99733448], [110.20529938, -7.98387527]]]}, "properties": {"fid": 631, "GID_0": "IDN", "NAME_0": "Indonesia", "GID_1": "IDN.5_1", "NAME_1": "DI Yogyakarta", "NL_NAME_1": null, "GID_2": "IDN.5.2_1", "NAME_2": "Bantul", "NL_NAME_2": null, "GID_3": "IDN.5.2.15_1", "NAME_3": "Srandakan", "VARNAME_3": null, "NL_NAME_3": null, "TYPE_3": "Kecamatan", "ENGTYPE_3": "Sub-district", "CC_3": "3402010", "HASC_3": null}, "id": 631}, {"type": "Feature", "geometry": {"type": "Polygon", "coordinates": [[[110.58716583, -7.90022755], [110.585495, -7.90223789], [110.57106018, -7.89306641], [110.56211853, -7.89347696], [110.56746674, -7.86925268], [110.5712204, -7.83815241], [110.56912231, -7.82528734], [110.56134033, -7.8197732], [110.5426712, -7.82149887], [110.54653168, -7.79802656], [110.54395294, -7.79377174], [110.56361389, -7.78244877], [110.58482361, -7.79090738], [110.58877563, -7.80733633], [110.60816193, -7.79676008], [110.6287384, -7.80041409], [110.64700317, -7.79524469], [110.66138458, -7.79935074], [110.65506744, -7.81999302], [110.63256073, -7.8304224], [110.61219788, -7.84774542], [110.59509277, -7.85484314], [110.58639526, -7.86482763], [110.5907135, -7.88530207], [110.58716583, -7.90022755]]]}, "properties": {"fid": 632, "GID_0": "IDN", "NAME_0": "Indonesia", "GID_1": "IDN.5_1", "NAME_1": "DI Yogyakarta", "NL_NAME_1": null, "GID_2": "IDN.5.3_1", "NAME_2": "Gunung Kidul", "NL_NAME_2": null, "GID_3": "IDN.5.3.1_1", "NAME_3": "Gedang Sari", "VARNAME_3": null, "NL_NAME_3": null, "TYPE_3": "Kecamatan", "ENGTYPE_3": "Sub-district", "CC_3": "3403120", "HASC_3": null}, "id": 632}, {"type": "Feature", "geometry": {"type": "Polygon", "coordinates": [[[110.81712341, -8.14363003], [110.81641388, -8.15413761], [110.83318329, -8.17363834], [110.83419037, -8.19064903], [110.82982635, -8.20141983], [110.80754852, -8.20062828], [110.79727936, -8.19115353], [110.77482605, -8.19675159], [110.74603271, -8.19584274], [110.73786163, -8.19240856], [110.71813202, -8.19950962], [110.68906403, -8.18490791], [110.69204712, -8.17225075], [110.69213104, -8.14582062], [110.69715118, -8.1267004], [110.71401215, -8.13409519], [110.71752167, -8.14371586], [110.73670959, -8.13094807], [110.74969482, -8.14562702], [110.75494385, -8.14255714], [110.7575531, -8.11604404], [110.77314758, -8.12031555], [110.77851105, -8.13314724], [110.78739929, -8.13044357], [110.78564453, -8.14887714], [110.79019165, -8.15830421], [110.80032349, -8.16205215], [110.81712341, -8.14363003]]]}, "properties": {"fid": 633, "GID_0": "IDN", "NAME_0": "Indonesia", "GID_1": "IDN.5_1", "NAME_1": "DI Yogyakarta", "NL_NAME_1": null, "GID_2": "IDN.5.3_1", "NAME_2": "Gunung Kidul", "NL_NAME_2": null, "GID_3": "IDN.5.3.1_1", "NAME_3": "Girisubo", "VARNAME_3": null, "NL_NAME_3": null, "TYPE_3": "Kecamatan", "ENGTYPE_3": "Sub-district", "CC_3": "3403051", "HASC_3": null}, "id": 633}, {"type": "Feature", "geometry": {"type": "Polygon", "coordinates": [[[110.63008118, -7.98210049], [110.63053131, -7.97355223], [110.61727142, -7.95179653], [110.61666107, -7.93813658], [110.62102509, -7.91654062], [110.6342392, -7.91312695], [110.6539917, -7.91687727], [110.66268921, -7.90448284], [110.68280029, -7.89914942], [110.68087006, -7.88294506], [110.69122314, -7.88658524], [110.69941711, -7.88644838], [110.71025085, -7.90251732], [110.70773315, -7.91249847], [110.71206665, -7.94592476], [110.70715332, -7.96087265], [110.69873047, -7.96991873], [110.70129395, -7.97922182], [110.68291473, -7.98044157], [110.6754303, -7.97569513], [110.6654129, -7.98249292], [110.6420517, -7.97162724], [110.63917542, -7.98292732], [110.63008118, -7.98210049]]]}, "properties": {"fid": 634, "GID_0": "IDN", "NAME_0": "Indonesia", "GID_1": "IDN.5_1", "NAME_1": "DI Yogyakarta", "NL_NAME_1": null, "GID_2": "IDN.5.3_1", "NAME_2": "Gunung Kidul", "NL_NAME_2": null, "GID_3": "IDN.5.3.2_1", "NAME_3": "Karangmojo", "VARNAME_3": null, "NL_NAME_3": null, "TYPE_3": "Kecamatan", "ENGTYPE_3": "Sub-district", "CC_3": "3403080", "HASC_3": null}, "id": 634}, {"type": "Feature", "geometry": {"type": "Polygon", "coordinates": [[[110.69122314, -7.88658524], [110.68087006, -7.88294506], [110.67017365, -7.87431431], [110.66536713, -7.8526206], [110.66310883, -7.82564402], [110.65506744, -7.81999302], [110.66138458, -7.79935074], [110.67188263, -7.79679203], [110.67987823, -7.80653286], [110.69419861, -7.80750751], [110.70870209, -7.80529261], [110.71260071, -7.79273224], [110.7239151, -7.79442835], [110.74263763, -7.81126404], [110.73490906, -7.81987762], [110.71260071, -7.82351303], [110.70513153, -7.84877586], [110.69122314, -7.88658524]]]}, "properties": {"fid": 635, "GID_0": "IDN", "NAME_0": "Indonesia", "GID_1": "IDN.5_1", "NAME_1": "DI Yogyakarta", "NL_NAME_1": null, "GID_2": "IDN.5.3_1", "NAME_2": "Gunung Kidul", "NL_NAME_2": null, "GID_3": "IDN.5.3.3_1", "NAME_3": "Ngawen", "VARNAME_3": null, "NL_NAME_3": null, "TYPE_3": "Kecamatan", "ENGTYPE_3": "Sub-district", "CC_3": "3403140", "HASC_3": null}, "id": 635}, {"type": "Feature", "geometry": {"type": "Polygon", "coordinates": [[[110.65506744, -7.81999302], [110.66310883, -7.82564402], [110.66536713, -7.8526206], [110.67017365, -7.87431431], [110.68087006, -7.88294506], [110.68280029, -7.89914942], [110.66268921, -7.90448284], [110.6539917, -7.91687727], [110.6342392, -7.91312695], [110.62102509, -7.91654062], [110.60752869, -7.90893459], [110.59334564, -7.90646791], [110.58716583, -7.90022755], [110.5907135, -7.88530207], [110.58639526, -7.86482763], [110.59509277, -7.85484314], [110.61219788, -7.84774542], [110.63256073, -7.8304224], [110.65506744, -7.81999302]]]}, "properties": {"fid": 636, "GID_0": "IDN", "NAME_0": "Indonesia", "GID_1": "IDN.5_1", "NAME_1": "DI Yogyakarta", "NL_NAME_1": null, "GID_2": "IDN.5.3_1", "NAME_2": "Gunung Kidul", "NL_NAME_2": null, "GID_3": "IDN.5.3.4_1", "NAME_3": "Nglipar", "VARNAME_3": null, "NL_NAME_3": null, "TYPE_3": "Kecamatan", "ENGTYPE_3": "Sub-district", "CC_3": "3403130", "HASC_3": null}, "id": 636}, {"type": "Feature", "geometry": {"type": "Polygon", "coordinates": [[[110.56310272, -8.04977512], [110.55874634, -8.06235123], [110.55725098, -8.0844326], [110.54811096, -8.0806427], [110.54698944, -8.06246281], [110.55221558, -8.03641033], [110.53419495, -8.03073597], [110.5280304, -8.03713799], [110.52731323, -8.05354786], [110.51740265, -8.05017757], [110.51416779, -8.03304577], [110.50571442, -8.02036572], [110.49073029, -8.01612663], [110.47273254, -8.00073433], [110.48648834, -7.99782896], [110.48767853, -7.98568916], [110.51634216, -7.97752905], [110.54022217, -7.97375345], [110.54990387, -7.97863245], [110.56098938, -7.98836422], [110.55883026, -8.00031471], [110.56686401, -8.00463486], [110.57160187, -8.02019405], [110.56163788, -8.04149342], [110.56310272, -8.04977512]]]}, "properties": {"fid": 637, "GID_0": "IDN", "NAME_0": "Indonesia", "GID_1": "IDN.5_1", "NAME_1": "DI Yogyakarta", "NL_NAME_1": null, "GID_2": "IDN.5.3_1", "NAME_2": "Gunung Kidul", "NL_NAME_2": null, "GID_3": "IDN.5.3.5_1", "NAME_3": "Paliyan", "VARNAME_3": null, "NL_NAME_3": null, "TYPE_3": "Kecamatan", "ENGTYPE_3": "Sub-district", "CC_3": "3403020", "HASC_3": null}, "id": 637}, {"type": "Feature", "geometry": {"type": "Polygon", "coordinates": [[[110.46867371, -8.10816002], [110.40457916, -8.07948017], [110.40267944, -8.06997013], [110.41616821, -8.03600883], [110.41636658, -8.02520847], [110.40886688, -8.0094347], [110.39853668, -8.00608635], [110.39176178, -7.9805994], [110.39741516, -7.96990013], [110.42204285, -7.9735055], [110.43292236, -7.96432781], [110.44100189, -7.96745825], [110.44161987, -7.97509098], [110.45455933, -7.99200106], [110.46601868, -7.98570108], [110.48767853, -7.98568916], [110.48648834, -7.99782896], [110.47273254, -8.00073433], [110.49073029, -8.01612663], [110.47579193, -8.03063011], [110.47818756, -8.04244995], [110.46837616, -8.06349659], [110.45955658, -8.06432629], [110.46323395, -8.09520054], [110.46867371, -8.10816002]]]}, "properties": {"fid": 638, "GID_0": "IDN", "NAME_0": "Indonesia", "GID_1": "IDN.5_1", "NAME_1": "DI Yogyakarta", "NL_NAME_1": null, "GID_2": "IDN.5.3_1", "NAME_2": "Gunung Kidul", "NL_NAME_2": null, "GID_3": "IDN.5.3.6_1", "NAME_3": "Panggang", "VARNAME_3": null, "NL_NAME_3": null, "TYPE_3": "Kecamatan", "ENGTYPE_3": "Sub-district", "CC_3": "3403010", "HASC_3": null}, "id": 638}, {"type": "Feature", "geometry": {"type": "Polygon", "coordinates": [[[110.49510193, -7.89097023], [110.47686768, -7.88828182], [110.46754456, -7.86670828], [110.4839325, -7.84038639], [110.49005127, -7.83765221], [110.51633453, -7.83762693], [110.51951599, -7.83097363], [110.5426712, -7.82149887], [110.56134033, -7.8197732], [110.56912231, -7.82528734], [110.5712204, -7.83815241], [110.56746674, -7.86925268], [110.56211853, -7.89347696], [110.54827881, -7.8911128], [110.5247879, -7.89984512], [110.51493835, -7.90917826], [110.51304626, -7.88749981], [110.50177765, -7.88478994], [110.49510193, -7.89097023]]]}, "properties": {"fid": 639, "GID_0": "IDN", "NAME_0": "Indonesia", "GID_1": "IDN.5_1", "NAME_1": "DI Yogyakarta", "NL_NAME_1": null, "GID_2": "IDN.5.3_1", "NAME_2": "Gunung Kidul", "NL_NAME_2": null, "GID_3": "IDN.5.3.7_1", "NAME_3": "Patuk", "VARNAME_3": null, "NL_NAME_3": null, "TYPE_3": "Kecamatan", "ENGTYPE_3": "Sub-district", "CC_3": "3403110", "HASC_3": null}, "id": 639}, {"type": "Feature", "geometry": {"type": "Polygon", "coordinates": [[[110.48767853, -7.98568916], [110.46601868, -7.98570108], [110.45455933, -7.99200106], [110.44161987, -7.97509098], [110.44100189, -7.96745825], [110.443573, -7.9520545], [110.45487976, -7.95163774], [110.47047424, -7.96210146], [110.47625732, -7.94367218], [110.48781586, -7.94517803], [110.49347687, -7.93139887], [110.49829865, -7.90084362], [110.49510193, -7.89097023], [110.50177765, -7.88478994], [110.51304626, -7.88749981], [110.51493835, -7.90917826], [110.5247879, -7.89984512], [110.54827881, -7.8911128], [110.56211853, -7.89347696], [110.57106018, -7.89306641], [110.585495, -7.90223789], [110.58014679, -7.91307783], [110.58390045, -7.93565702], [110.5896225, -7.95174694], [110.57872772, -7.95153284], [110.55718994, -7.96505928], [110.54990387, -7.97863245], [110.54022217, -7.97375345], [110.51634216, -7.97752905], [110.48767853, -7.98568916]]]}, "properties": {"fid": 640, "GID_0": "IDN", "NAME_0": "Indonesia", "GID_1": "IDN.5_1", "NAME_1": "DI Yogyakarta", "NL_NAME_1": null, "GID_2": "IDN.5.3_1", "NAME_2": "Gunung Kidul", "NL_NAME_2": null, "GID_3": "IDN.5.3.8_1", "NAME_3": "Playen", "VARNAME_3": null, "NL_NAME_3": null, "TYPE_3": "Kecamatan", "ENGTYPE_3": "Sub-district", "CC_3": "3403100", "HASC_3": null}, "id": 640}, {"type": "Feature", "geometry": {"type": "Polygon", "coordinates": [[[110.70383453, -8.03278732], [110.68384552, -8.02900696], [110.67900848, -8.01732731], [110.6872406, -8.0135746], [110.67736816, -7.9959116], [110.6754303, -7.97569513], [110.68291473, -7.98044157], [110.70129395, -7.97922182], [110.69873047, -7.96991873], [110.70715332, -7.96087265], [110.71206665, -7.94592476], [110.70773315, -7.91249847], [110.71025085, -7.90251732], [110.72989655, -7.90717888], [110.74804688, -7.90809536], [110.75531769, -7.9033308], [110.76989746, -7.90859222], [110.77212524, -7.92680931], [110.76828766, -7.95564222], [110.76833344, -7.98016405], [110.76174927, -8.003479], [110.75688171, -8.01225567], [110.75601196, -8.03014278], [110.74493408, -8.03770065], [110.72738647, -8.02823639], [110.70383453, -8.03278732]]]}, "properties": {"fid": 641, "GID_0": "IDN", "NAME_0": "Indonesia", "GID_1": "IDN.5_1", "NAME_1": "DI Yogyakarta", "NL_NAME_1": null, "GID_2": "IDN.5.3_1", "NAME_2": "Gunung Kidul", "NL_NAME_2": null, "GID_3": "IDN.5.3.9_1", "NAME_3": "Ponjong", "VARNAME_3": null, "NL_NAME_3": null, "TYPE_3": "Kecamatan", "ENGTYPE_3": "Sub-district", "CC_3": "3403070", "HASC_3": null}, "id": 641}, {"type": "Feature", "geometry": {"type": "Polygon", "coordinates": [[[110.40457916, -8.07948017], [110.38716125, -8.07232952], [110.37516785, -8.07158089], [110.35954285, -8.05689716], [110.3400116, -8.02804661], [110.32923126, -8.00613308], [110.3312149, -7.99894094], [110.35015869, -7.98867178], [110.35604095, -7.97886133], [110.36724854, -7.9733758], [110.38085175, -7.9820447], [110.39176178, -7.9805994], [110.39853668, -8.00608635], [110.40886688, -8.0094347], [110.41636658, -8.02520847], [110.41616821, -8.03600883], [110.40267944, -8.06997013], [110.40457916, -8.07948017]]]}, "properties": {"fid": 642, "GID_0": "IDN", "NAME_0": "Indonesia", "GID_1": "IDN.5_1", "NAME_1": "DI Yogyakarta", "NL_NAME_1": null, "GID_2": "IDN.5.3_1", "NAME_2": "Gunung Kidul", "NL_NAME_2": null, "GID_3": "IDN.5.3.10_1", "NAME_3": "Purwosari", "VARNAME_3": null, "NL_NAME_3": null, "TYPE_3": "Kecamatan", "ENGTYPE_3": "Sub-district", "CC_3": "3403011", "HASC_3": null}, "id": 642}, {"type": "Feature", "geometry": {"type": "Polygon", "coordinates": [[[110.69715118, -8.1267004], [110.71408844, -8.1121521], [110.71276093, -8.10311985], [110.71800995, -8.09743977], [110.71298981, -8.06950188], [110.72394562, -8.0551796], [110.70383453, -8.03278732], [110.72738647, -8.02823639], [110.74493408, -8.03770065], [110.75601196, -8.03014278], [110.76807404, -8.04674053], [110.77851868, -8.06764507], [110.77931976, -8.08301449], [110.78761292, -8.10323238], [110.78739929, -8.13044357], [110.77851105, -8.13314724], [110.77314758, -8.12031555], [110.7575531, -8.11604404], [110.75494385, -8.14255714], [110.74969482, -8.14562702], [110.73670959, -8.13094807], [110.71752167, -8.14371586], [110.71401215, -8.13409519], [110.69715118, -8.1267004]]]}, "properties": {"fid": 643, "GID_0": "IDN", "NAME_0": "Indonesia", "GID_1": "IDN.5_1", "NAME_1": "DI Yogyakarta", "NL_NAME_1": null, "GID_2": "IDN.5.3_1", "NAME_2": "Gunung Kidul", "NL_NAME_2": null, "GID_3": "IDN.5.3.11_1", "NAME_3": "Rongkop", "VARNAME_3": null, "NL_NAME_3": null, "TYPE_3": "Kecamatan", "ENGTYPE_3": "Sub-district", "CC_3": "3403050", "HASC_3": null}, "id": 643}, {"type": "Feature", "geometry": {"type": "Polygon", "coordinates": [[[110.55725098, -8.0844326], [110.55762482, -8.09620476], [110.54561615, -8.11874104], [110.54771423, -8.12845993], [110.54456329, -8.13494968], [110.52778625, -8.1316309], [110.51600647, -8.12335587], [110.46867371, -8.10816002], [110.46323395, -8.09520054], [110.45955658, -8.06432629], [110.46837616, -8.06349659], [110.47818756, -8.04244995], [110.47579193, -8.03063011], [110.49073029, -8.01612663], [110.50571442, -8.02036572], [110.51416779, -8.03304577], [110.51740265, -8.05017757], [110.52731323, -8.05354786], [110.5280304, -8.03713799], [110.53419495, -8.03073597], [110.55221558, -8.03641033], [110.54698944, -8.06246281], [110.54811096, -8.0806427], [110.55725098, -8.0844326]]]}, "properties": {"fid": 644, "GID_0": "IDN", "NAME_0": "Indonesia", "GID_1": "IDN.5_1", "NAME_1": "DI Yogyakarta", "NL_NAME_1": null, "GID_2": "IDN.5.3_1", "NAME_2": "Gunung Kidul", "NL_NAME_2": null, "GID_3": "IDN.5.3.12_1", "NAME_3": "Sapto Sari", "VARNAME_3": null, "NL_NAME_3": null, "TYPE_3": "Kecamatan", "ENGTYPE_3": "Sub-district", "CC_3": "3403030", "HASC_3": null}, "id": 644}, {"type": "Feature", "geometry": {"type": "Polygon", "coordinates": [[[110.70383453, -8.03278732], [110.72394562, -8.0551796], [110.71298981, -8.06950188], [110.71800995, -8.09743977], [110.71276093, -8.10311985], [110.68695831, -8.079216], [110.67010498, -8.08086109], [110.66123199, -8.06571102], [110.64389038, -8.05650711], [110.64352417, -8.04544067], [110.61031342, -8.04337788], [110.6075058, -8.05810642], [110.59061432, -8.05849838], [110.5920639, -8.00779819], [110.60733032, -8.00900364], [110.61125946, -8.00008297], [110.62399292, -7.99169874], [110.63008118, -7.98210049], [110.63917542, -7.98292732], [110.6420517, -7.97162724], [110.6654129, -7.98249292], [110.6754303, -7.97569513], [110.67736816, -7.9959116], [110.6872406, -8.0135746], [110.67900848, -8.01732731], [110.68384552, -8.02900696], [110.70383453, -8.03278732]]]}, "properties": {"fid": 645, "GID_0": "IDN", "NAME_0": "Indonesia", "GID_1": "IDN.5_1", "NAME_1": "DI Yogyakarta", "NL_NAME_1": null, "GID_2": "IDN.5.3_1", "NAME_2": "Gunung Kidul", "NL_NAME_2": null, "GID_3": "IDN.5.3.13_1", "NAME_3": "Semanu", "VARNAME_3": null, "NL_NAME_3": null, "TYPE_3": "Kecamatan", "ENGTYPE_3": "Sub-district", "CC_3": "3403060", "HASC_3": null}, "id": 645}, {"type": "Feature", "geometry": {"type": "Polygon", "coordinates": [[[110.77612305, -7.89484024], [110.76989746, -7.90859222], [110.75531769, -7.9033308], [110.74804688, -7.90809536], [110.72989655, -7.90717888], [110.71025085, -7.90251732], [110.69941711, -7.88644838], [110.69122314, -7.88658524], [110.70513153, -7.84877586], [110.71260071, -7.82351303], [110.73490906, -7.81987762], [110.74263763, -7.81126404], [110.75636292, -7.82733393], [110.77017212, -7.8081131], [110.78567505, -7.81668663], [110.78248596, -7.84647799], [110.7882843, -7.85502481], [110.77831268, -7.87738943], [110.77612305, -7.89484024]]]}, "properties": {"fid": 646, "GID_0": "IDN", "NAME_0": "Indonesia", "GID_1": "IDN.5_1", "NAME_1": "DI Yogyakarta", "NL_NAME_1": null, "GID_2": "IDN.5.3_1", "NAME_2": "Gunung Kidul", "NL_NAME_2": null, "GID_3": "IDN.5.3.14_1", "NAME_3": "Semin", "VARNAME_3": null, "NL_NAME_3": null, "TYPE_3": "Kecamatan", "ENGTYPE_3": "Sub-district", "CC_3": "3403150", "HASC_3": null}, "id": 646}, {"type": "Feature", "geometry": {"type": "Polygon", "coordinates": [[[110.55725098, -8.0844326], [110.55874634, -8.06235123], [110.56310272, -8.04977512], [110.58165741, -8.05957985], [110.59061432, -8.05849838], [110.6075058, -8.05810642], [110.61031342, -8.04337788], [110.64352417, -8.04544067], [110.64389038, -8.05650711], [110.63665009, -8.06160545], [110.63514709, -8.07645035], [110.62072754, -8.07702351], [110.61592102, -8.08360386], [110.61943817, -8.10242367], [110.60884094, -8.11238384], [110.60028839, -8.12717342], [110.59999847, -8.14524746], [110.59077454, -8.14742661], [110.57939148, -8.13824463], [110.55348969, -8.13342571], [110.54771423, -8.12845993], [110.54561615, -8.11874104], [110.55762482, -8.09620476], [110.55725098, -8.0844326]]]}, "properties": {"fid": 647, "GID_0": "IDN", "NAME_0": "Indonesia", "GID_1": "IDN.5_1", "NAME_1": "DI Yogyakarta", "NL_NAME_1": null, "GID_2": "IDN.5.3_1", "NAME_2": "Gunung Kidul", "NL_NAME_2": null, "GID_3": "IDN.5.3.15_1", "NAME_3": "Tanjungsari", "VARNAME_3": null, "NL_NAME_3": null, "TYPE_3": "Kecamatan", "ENGTYPE_3": "Sub-district", "CC_3": "3403041", "HASC_3": null}, "id": 647}, {"type": "Feature", "geometry": {"type": "Polygon", "coordinates": [[[110.69715118, -8.1267004], [110.69213104, -8.14582062], [110.69204712, -8.17225075], [110.68906403, -8.18490791], [110.67779541, -8.18237591], [110.64431, -8.16859055], [110.60702515, -8.1469574], [110.59999847, -8.14524746], [110.60028839, -8.12717342], [110.60884094, -8.11238384], [110.61943817, -8.10242367], [110.61592102, -8.08360386], [110.62072754, -8.07702351], [110.63514709, -8.07645035], [110.63665009, -8.06160545], [110.64389038, -8.05650711], [110.66123199, -8.06571102], [110.67010498, -8.08086109], [110.68695831, -8.079216], [110.71276093, -8.10311985], [110.71408844, -8.1121521], [110.69715118, -8.1267004]]]}, "properties": {"fid": 648, "GID_0": "IDN", "NAME_0": "Indonesia", "GID_1": "IDN.5_1", "NAME_1": "DI Yogyakarta", "NL_NAME_1": null, "GID_2": "IDN.5.3_1", "NAME_2": "Gunung Kidul", "NL_NAME_2": null, "GID_3": "IDN.5.3.16_1", "NAME_3": "Tepus", "VARNAME_3": null, "NL_NAME_3": null, "TYPE_3": "Kecamatan", "ENGTYPE_3": "Sub-district", "CC_3": "3403040", "HASC_3": null}, "id": 648}, {"type": "Feature", "geometry": {"type": "Polygon", "coordinates": [[[110.59061432, -8.05849838], [110.58165741, -8.05957985], [110.56310272, -8.04977512], [110.56163788, -8.04149342], [110.57160187, -8.02019405], [110.56686401, -8.00463486], [110.55883026, -8.00031471], [110.56098938, -7.98836422], [110.54990387, -7.97863245], [110.55718994, -7.96505928], [110.57872772, -7.95153284], [110.5896225, -7.95174694], [110.58390045, -7.93565702], [110.58014679, -7.91307783], [110.585495, -7.90223789], [110.58716583, -7.90022755], [110.59334564, -7.90646791], [110.60752869, -7.90893459], [110.62102509, -7.91654062], [110.61666107, -7.93813658], [110.61727142, -7.95179653], [110.63053131, -7.97355223], [110.63008118, -7.98210049], [110.62399292, -7.99169874], [110.61125946, -8.00008297], [110.60733032, -8.00900364], [110.5920639, -8.00779819], [110.59061432, -8.05849838]]]}, "properties": {"fid": 649, "GID_0": "IDN", "NAME_0": "Indonesia", "GID_1": "IDN.5_1", "NAME_1": "DI Yogyakarta", "NL_NAME_1": null, "GID_2": "IDN.5.3_1", "NAME_2": "Gunung Kidul", "NL_NAME_2": null, "GID_3": "IDN.5.3.17_1", "NAME_3": "Wonosari", "VARNAME_3": null, "NL_NAME_3": null, "TYPE_3": "Kecamatan", "ENGTYPE_3": "Sub-district", "CC_3": "3403090", "HASC_3": null}, "id": 649}, {"type": "Feature", "geometry": {"type": "Polygon", "coordinates": [[[110.37015533, -7.79671669], [110.36545563, -7.79634857], [110.3662796, -7.78962994], [110.36893463, -7.78995085], [110.37767029, -7.79727983], [110.37015533, -7.79671669]]]}, "properties": {"fid": 650, "GID_0": "IDN", "NAME_0": "Indonesia", "GID_1": "IDN.5_1", "NAME_1": "DI Yogyakarta", "NL_NAME_1": null, "GID_2": "IDN.5.4_1", "NAME_2": "Kota Yogyakarta", "NL_NAME_2": null, "GID_3": "IDN.5.4.1_1", "NAME_3": "Danurejan", "VARNAME_3": null, "NL_NAME_3": null, "TYPE_3": "Kecamatan", "ENGTYPE_3": "Sub-district", "CC_3": "3471070", "HASC_3": null}, "id": 650}, {"type": "Feature", "geometry": {"type": "Polygon", "coordinates": [[[110.35542297, -7.79565477], [110.35540771, -7.79448462], [110.3553772, -7.78851986], [110.3662796, -7.78962994], [110.36545563, -7.79634857], [110.36219788, -7.79601383], [110.35542297, -7.79565477]]]}, "properties": {"fid": 651, "GID_0": "IDN", "NAME_0": "Indonesia", "GID_1": "IDN.5_1", "NAME_1": "DI Yogyakarta", "NL_NAME_1": null, "GID_2": "IDN.5.4_1", "NAME_2": "Kota Yogyakarta", "NL_NAME_2": null, "GID_3": "IDN.5.4.1_1", "NAME_3": "Gedong Tengen", "VARNAME_3": null, "NL_NAME_3": null, "TYPE_3": "Kecamatan", "ENGTYPE_3": "Sub-district", "CC_3": "3471120", "HASC_3": null}, "id": 651}, {"type": "Feature", "geometry": {"type": "Polygon", "coordinates": [[[110.39711761, -7.78828955], [110.39620209, -7.79078388], [110.38045502, -7.79821014], [110.37767029, -7.79727983], [110.36893463, -7.78995085], [110.37007904, -7.77522373], [110.39054108, -7.78039646], [110.39711761, -7.78828955]]]}, "properties": {"fid": 652, "GID_0": "IDN", "NAME_0": "Indonesia", "GID_1": "IDN.5_1", "NAME_1": "DI Yogyakarta", "NL_NAME_1": null, "GID_2": "IDN.5.4_1", "NAME_2": "Kota Yogyakarta", "NL_NAME_2": null, "GID_3": "IDN.5.4.2_1", "NAME_3": "Gondokusuman", "VARNAME_3": null, "NL_NAME_3": null, "TYPE_3": "Kecamatan", "ENGTYPE_3": "Sub-district", "CC_3": "3471060", "HASC_3": null}, "id": 652}, {"type": "Feature", "geometry": {"type": "Polygon", "coordinates": [[[110.3687439, -7.80809212], [110.36047363, -7.80479574], [110.36219788, -7.79601383], [110.36545563, -7.79634857], [110.37015533, -7.79671669], [110.37129974, -7.8015399], [110.3687439, -7.80809212]]]}, "properties": {"fid": 653, "GID_0": "IDN", "NAME_0": "Indonesia", "GID_1": "IDN.5_1", "NAME_1": "DI Yogyakarta", "NL_NAME_1": null, "GID_2": "IDN.5.4_1", "NAME_2": "Kota Yogyakarta", "NL_NAME_2": null, "GID_3": "IDN.5.4.3_1", "NAME_3": "Gondomanan", "VARNAME_3": null, "NL_NAME_3": null, "TYPE_3": "Kecamatan", "ENGTYPE_3": "Sub-district", "CC_3": "3471090", "HASC_3": null}, "id": 653}, {"type": "Feature", "geometry": {"type": "Polygon", "coordinates": [[[110.36893463, -7.78995085], [110.3662796, -7.78962994], [110.3553772, -7.78851986], [110.36933136, -7.77369785], [110.3693161, -7.77404976], [110.37007904, -7.77522373], [110.36893463, -7.78995085]]]}, "properties": {"fid": 654, "GID_0": "IDN", "NAME_0": "Indonesia", "GID_1": "IDN.5_1", "NAME_1": "DI Yogyakarta", "NL_NAME_1": null, "GID_2": "IDN.5.4_1", "NAME_2": "Kota Yogyakarta", "NL_NAME_2": null, "GID_3": "IDN.5.4.4_1", "NAME_3": "Jetis", "VARNAME_3": null, "NL_NAME_3": null, "TYPE_3": "Kecamatan", "ENGTYPE_3": "Sub-district", "CC_3": "3471130", "HASC_3": null}, "id": 654}, {"type": "Feature", "geometry": {"type": "Polygon", "coordinates": [[[110.39375305, -7.82775021], [110.39263916, -7.81636], [110.39757538, -7.8022337], [110.40479279, -7.82261658], [110.39375305, -7.82775021]]]}, "properties": {"fid": 655, "GID_0": "IDN", "NAME_0": "Indonesia", "GID_1": "IDN.5_1", "NAME_1": "DI Yogyakarta", "NL_NAME_1": null, "GID_2": "IDN.5.4_1", "NAME_2": "Kota Yogyakarta", "NL_NAME_2": null, "GID_3": "IDN.5.4.5_1", "NAME_3": "Kotagede", "VARNAME_3": null, "NL_NAME_3": null, "TYPE_3": "Kecamatan", "ENGTYPE_3": "Sub-district", "CC_3": "3471050", "HASC_3": null}, "id": 655}, {"type": "Feature", "geometry": {"type": "Polygon", "coordinates": [[[110.35623169, -7.80866957], [110.36047363, -7.80479574], [110.3687439, -7.80809212], [110.36837769, -7.81463146], [110.35623169, -7.80866957]]]}, "properties": {"fid": 656, "GID_0": "IDN", "NAME_0": "Indonesia", "GID_1": "IDN.5_1", "NAME_1": "DI Yogyakarta", "NL_NAME_1": null, "GID_2": "IDN.5.4_1", "NAME_2": "Kota Yogyakarta", "NL_NAME_2": null, "GID_3": "IDN.5.4.6_1", "NAME_3": "Kraton", "VARNAME_3": null, "NL_NAME_3": null, "TYPE_3": "Kecamatan", "ENGTYPE_3": "Sub-district", "CC_3": "3471020", "HASC_3": null}, "id": 656}, {"type": "Feature", "geometry": {"type": "Polygon", "coordinates": [[[110.36837769, -7.81463146], [110.36719513, -7.82657337], [110.35182953, -7.82572556], [110.35153198, -7.81350088], [110.35370636, -7.80827618], [110.35623169, -7.80866957], [110.36837769, -7.81463146]]]}, "properties": {"fid": 657, "GID_0": "IDN", "NAME_0": "Indonesia", "GID_1": "IDN.5_1", "NAME_1": "DI Yogyakarta", "NL_NAME_1": null, "GID_2": "IDN.5.4_1", "NAME_2": "Kota Yogyakarta", "NL_NAME_2": null, "GID_3": "IDN.5.4.7_1", "NAME_3": "Mantrijeron", "VARNAME_3": null, "NL_NAME_3": null, "TYPE_3": "Kecamatan", "ENGTYPE_3": "Sub-district", "CC_3": "3471010", "HASC_3": null}, "id": 657}, {"type": "Feature", "geometry": {"type": "Polygon", "coordinates": [[[110.37503052, -7.82442141], [110.36719513, -7.82657337], [110.36837769, -7.81463146], [110.3687439, -7.80809212], [110.37129974, -7.8015399], [110.38056183, -7.80180407], [110.37503052, -7.82442141]]]}, "properties": {"fid": 658, "GID_0": "IDN", "NAME_0": "Indonesia", "GID_1": "IDN.5_1", "NAME_1": "DI Yogyakarta", "NL_NAME_1": null, "GID_2": "IDN.5.4_1", "NAME_2": "Kota Yogyakarta", "NL_NAME_2": null, "GID_3": "IDN.5.4.8_1", "NAME_3": "Mergangsan", "VARNAME_3": null, "NL_NAME_3": null, "TYPE_3": "Kecamatan", "ENGTYPE_3": "Sub-district", "CC_3": "3471030", "HASC_3": null}, "id": 658}, {"type": "Feature", "geometry": {"type": "Polygon", "coordinates": [[[110.35623169, -7.80866957], [110.35370636, -7.80827618], [110.35542297, -7.79565477], [110.36219788, -7.79601383], [110.36047363, -7.80479574], [110.35623169, -7.80866957]]]}, "properties": {"fid": 659, "GID_0": "IDN", "NAME_0": "Indonesia", "GID_1": "IDN.5_1", "NAME_1": "DI Yogyakarta", "NL_NAME_1": null, "GID_2": "IDN.5.4_1", "NAME_2": "Kota Yogyakarta", "NL_NAME_2": null, "GID_3": "IDN.5.4.9_1", "NAME_3": "Ngampilan", "VARNAME_3": null, "NL_NAME_3": null, "TYPE_3": "Kecamatan", "ENGTYPE_3": "Sub-district", "CC_3": "3471100", "HASC_3": null}, "id": 659}, {"type": "Feature", "geometry": {"type": "Polygon", "coordinates": [[[110.38045502, -7.79821014], [110.38056183, -7.80180407], [110.37129974, -7.8015399], [110.37015533, -7.79671669], [110.37767029, -7.79727983], [110.38045502, -7.79821014]]]}, "properties": {"fid": 660, "GID_0": "IDN", "NAME_0": "Indonesia", "GID_1": "IDN.5_1", "NAME_1": "DI Yogyakarta", "NL_NAME_1": null, "GID_2": "IDN.5.4_1", "NAME_2": "Kota Yogyakarta", "NL_NAME_2": null, "GID_3": "IDN.5.4.10_1", "NAME_3": "Pakualaman", "VARNAME_3": null, "NL_NAME_3": null, "TYPE_3": "Kecamatan", "ENGTYPE_3": "Sub-district", "CC_3": "3471080", "HASC_3": null}, "id": 660}, {"type": "Feature", "geometry": {"type": "Polygon", "coordinates": [[[110.35540771, -7.79448462], [110.34883881, -7.79290295], [110.35102844, -7.76822138], [110.35218811, -7.76635408], [110.36933136, -7.77369785], [110.3553772, -7.78851986], [110.35540771, -7.79448462]]]}, "properties": {"fid": 661, "GID_0": "IDN", "NAME_0": "Indonesia", "GID_1": "IDN.5_1", "NAME_1": "DI Yogyakarta", "NL_NAME_1": null, "GID_2": "IDN.5.4_1", "NAME_2": "Kota Yogyakarta", "NL_NAME_2": null, "GID_3": "IDN.5.4.11_1", "NAME_3": "Tegalrejo", "VARNAME_3": null, "NL_NAME_3": null, "TYPE_3": "Kecamatan", "ENGTYPE_3": "Sub-district", "CC_3": "3471140", "HASC_3": null}, "id": 661}, {"type": "Feature", "geometry": {"type": "Polygon", "coordinates": [[[110.37497711, -7.83084345], [110.37503052, -7.82442141], [110.38056183, -7.80180407], [110.38045502, -7.79821014], [110.39620209, -7.79078388], [110.39757538, -7.8022337], [110.39263916, -7.81636], [110.39375305, -7.82775021], [110.37497711, -7.83084345]]]}, "properties": {"fid": 662, "GID_0": "IDN", "NAME_0": "Indonesia", "GID_1": "IDN.5_1", "NAME_1": "DI Yogyakarta", "NL_NAME_1": null, "GID_2": "IDN.5.4_1", "NAME_2": "Kota Yogyakarta", "NL_NAME_2": null, "GID_3": "IDN.5.4.12_1", "NAME_3": "Umbulharjo", "VARNAME_3": null, "NL_NAME_3": null, "TYPE_3": "Kecamatan", "ENGTYPE_3": "Sub-district", "CC_3": "3471040", "HASC_3": null}, "id": 662}, {"type": "Feature", "geometry": {"type": "Polygon", "coordinates": [[[110.35370636, -7.80827618], [110.35153198, -7.81350088], [110.34462738, -7.80687809], [110.34883881, -7.79290295], [110.35540771, -7.79448462], [110.35542297, -7.79565477], [110.35370636, -7.80827618]]]}, "properties": {"fid": 663, "GID_0": "IDN", "NAME_0": "Indonesia", "GID_1": "IDN.5_1", "NAME_1": "DI Yogyakarta", "NL_NAME_1": null, "GID_2": "IDN.5.4_1", "NAME_2": "Kota Yogyakarta", "NL_NAME_2": null, "GID_3": "IDN.5.4.13_1", "NAME_3": "Wirobrajan", "VARNAME_3": null, "NL_NAME_3": null, "TYPE_3": "Kecamatan", "ENGTYPE_3": "Sub-district", "CC_3": "3471110", "HASC_3": null}, "id": 663}, {"type": "Feature", "geometry": {"type": "Polygon", "coordinates": [[[110.20529938, -7.98387527], [110.16542816, -7.96001387], [110.18341827, -7.92155981], [110.19374847, -7.93041086], [110.20869446, -7.93042707], [110.23365021, -7.94024229], [110.24407959, -7.93464136], [110.23168945, -7.95969582], [110.21472931, -7.97864103], [110.20529938, -7.98387527]]]}, "properties": {"fid": 664, "GID_0": "IDN", "NAME_0": "Indonesia", "GID_1": "IDN.5_1", "NAME_1": "DI Yogyakarta", "NL_NAME_1": null, "GID_2": "IDN.5.5_1", "NAME_2": "Kulon Progo", "NL_NAME_2": null, "GID_3": "IDN.5.5.1_1", "NAME_3": "Galur", "VARNAME_3": null, "NL_NAME_3": null, "TYPE_3": "Kecamatan", "ENGTYPE_3": "Sub-district", "CC_3": "3401040", "HASC_3": null}, "id": 664}, {"type": "Feature", "geometry": {"type": "Polygon", "coordinates": [[[110.13199615, -7.78608274], [110.12254333, -7.78793955], [110.11064148, -7.7780261], [110.1139679, -7.76486444], [110.12962341, -7.74752092], [110.1337204, -7.71202707], [110.14040375, -7.71650171], [110.16321564, -7.71932173], [110.16903687, -7.71483564], [110.18560028, -7.7203269], [110.1995697, -7.73633003], [110.19898224, -7.76533222], [110.18858337, -7.77800226], [110.17243195, -7.7890172], [110.15776825, -7.78211117], [110.1468277, -7.75876617], [110.14069366, -7.77460098], [110.13199615, -7.78608274]]]}, "properties": {"fid": 665, "GID_0": "IDN", "NAME_0": "Indonesia", "GID_1": "IDN.5_1", "NAME_1": "DI Yogyakarta", "NL_NAME_1": null, "GID_2": "IDN.5.5_1", "NAME_2": "Kulon Progo", "NL_NAME_2": null, "GID_3": "IDN.5.5.1_1", "NAME_3": "Girimulyo", "VARNAME_3": null, "NL_NAME_3": null, "TYPE_3": "Kecamatan", "ENGTYPE_3": "Sub-district", "CC_3": "3401090", "HASC_3": null}, "id": 665}, {"type": "Feature", "geometry": {"type": "Polygon", "coordinates": [[[110.22151184, -7.73386002], [110.1995697, -7.73633003], [110.18560028, -7.7203269], [110.21294403, -7.70890379], [110.20543671, -7.70118999], [110.20846558, -7.68256855], [110.21389771, -7.67635059], [110.20529938, -7.65180492], [110.21400452, -7.64771605], [110.24279785, -7.65315294], [110.25173187, -7.64245653], [110.26365662, -7.6459322], [110.26711273, -7.66306114], [110.26445007, -7.68143892], [110.27041626, -7.70567083], [110.26793671, -7.70727491], [110.26173401, -7.70484161], [110.23256683, -7.71373606], [110.22151184, -7.73386002]]]}, "properties": {"fid": 666, "GID_0": "IDN", "NAME_0": "Indonesia", "GID_1": "IDN.5_1", "NAME_1": "DI Yogyakarta", "NL_NAME_1": null, "GID_2": "IDN.5.5_1", "NAME_2": "Kulon Progo", "NL_NAME_2": null, "GID_3": "IDN.5.5.2_1", "NAME_3": "Kalibawang", "VARNAME_3": null, "NL_NAME_3": null, "TYPE_3": "Kecamatan", "ENGTYPE_3": "Sub-district", "CC_3": "3401110", "HASC_3": null}, "id": 666}, {"type": "Feature", "geometry": {"type": "Polygon", "coordinates": [[[110.04415894, -7.87148285], [110.04351807, -7.85982656], [110.05940247, -7.84130144], [110.05899811, -7.82368708], [110.06269073, -7.8139739], [110.08078766, -7.80661011], [110.08994293, -7.79022455], [110.10124969, -7.77903605], [110.11064148, -7.7780261], [110.12254333, -7.78793955], [110.13199615, -7.78608274], [110.14365387, -7.79191256], [110.13291931, -7.80088282], [110.13652039, -7.80904579], [110.12820435, -7.82684994], [110.13100433, -7.83843184], [110.12471771, -7.84743786], [110.12743378, -7.85668802], [110.12325287, -7.87065792], [110.11128998, -7.88123846], [110.10974121, -7.86737347], [110.0940094, -7.86250687], [110.06811523, -7.87188053], [110.04415894, -7.87148285]]]}, "properties": {"fid": 667, "GID_0": "IDN", "NAME_0": "Indonesia", "GID_1": "IDN.5_1", "NAME_1": "DI Yogyakarta", "NL_NAME_1": null, "GID_2": "IDN.5.5_1", "NAME_2": "Kulon Progo", "NL_NAME_2": null, "GID_3": "IDN.5.5.3_1", "NAME_3": "Kokap", "VARNAME_3": null, "NL_NAME_3": null, "TYPE_3": "Kecamatan", "ENGTYPE_3": "Sub-district", "CC_3": "3401080", "HASC_3": null}, "id": 667}, {"type": "Feature", "geometry": {"type": "Polygon", "coordinates": [[[110.18341827, -7.92155981], [110.18826294, -7.90249157], [110.20320129, -7.90038395], [110.2256546, -7.90620375], [110.25487518, -7.88537264], [110.26869202, -7.88525581], [110.27391815, -7.90962172], [110.27065277, -7.9259572], [110.25708771, -7.9234004], [110.24407959, -7.93464136], [110.23365021, -7.94024229], [110.20869446, -7.93042707], [110.19374847, -7.93041086], [110.18341827, -7.92155981]]]}, "properties": {"fid": 668, "GID_0": "IDN", "NAME_0": "Indonesia", "GID_1": "IDN.5_1", "NAME_1": "DI Yogyakarta", "NL_NAME_1": null, "GID_2": "IDN.5.5_1", "NAME_2": "Kulon Progo", "NL_NAME_2": null, "GID_3": "IDN.5.5.4_1", "NAME_3": "Lendah", "VARNAME_3": null, "NL_NAME_3": null, "TYPE_3": "Kecamatan", "ENGTYPE_3": "Sub-district", "CC_3": "3401050", "HASC_3": null}, "id": 668}, {"type": "Feature", "geometry": {"type": "Polygon", "coordinates": [[[110.17243195, -7.7890172], [110.18858337, -7.77800226], [110.19898224, -7.76533222], [110.1995697, -7.73633003], [110.22151184, -7.73386002], [110.21648407, -7.73831654], [110.21955872, -7.7536931], [110.22042847, -7.77672958], [110.23605347, -7.79804134], [110.22875977, -7.80476761], [110.2088623, -7.80925798], [110.20435333, -7.8216958], [110.19612885, -7.81868601], [110.18221283, -7.82529545], [110.16897583, -7.81765652], [110.17243195, -7.7890172]]]}, "properties": {"fid": 669, "GID_0": "IDN", "NAME_0": "Indonesia", "GID_1": "IDN.5_1", "NAME_1": "DI Yogyakarta", "NL_NAME_1": null, "GID_2": "IDN.5.5_1", "NAME_2": "Kulon Progo", "NL_NAME_2": null, "GID_3": "IDN.5.5.5_1", "NAME_3": "Nanggulan", "VARNAME_3": null, "NL_NAME_3": null, "TYPE_3": "Kecamatan", "ENGTYPE_3": "Sub-district", "CC_3": "3401100", "HASC_3": null}, "id": 669}, {"type": "Feature", "geometry": {"type": "Polygon", "coordinates": [[[110.16542816, -7.96001387], [110.10496521, -7.93157434], [110.11639404, -7.91122103], [110.13752747, -7.90943527], [110.15255737, -7.90352535], [110.15364838, -7.88232517], [110.17436981, -7.87454367], [110.19711304, -7.87578964], [110.19429016, -7.89267969], [110.18826294, -7.90249157], [110.18341827, -7.92155981], [110.16542816, -7.96001387]]]}, "properties": {"fid": 670, "GID_0": "IDN", "NAME_0": "Indonesia", "GID_1": "IDN.5_1", "NAME_1": "DI Yogyakarta", "NL_NAME_1": null, "GID_2": "IDN.5.5_1", "NAME_2": "Kulon Progo", "NL_NAME_2": null, "GID_3": "IDN.5.5.6_1", "NAME_3": "Panjatan", "VARNAME_3": null, "NL_NAME_3": null, "TYPE_3": "Kecamatan", "ENGTYPE_3": "Sub-district", "CC_3": "3401030", "HASC_3": null}, "id": 670}, {"type": "Feature", "geometry": {"type": "Polygon", "coordinates": [[[110.11128998, -7.88123846], [110.12325287, -7.87065792], [110.12743378, -7.85668802], [110.12471771, -7.84743786], [110.13100433, -7.83843184], [110.12820435, -7.82684994], [110.13652039, -7.80904579], [110.13291931, -7.80088282], [110.14365387, -7.79191256], [110.13199615, -7.78608274], [110.14069366, -7.77460098], [110.1468277, -7.75876617], [110.15776825, -7.78211117], [110.17243195, -7.7890172], [110.16897583, -7.81765652], [110.18221283, -7.82529545], [110.18071747, -7.8367734], [110.19773865, -7.85439682], [110.19711304, -7.87578964], [110.17436981, -7.87454367], [110.17449188, -7.86270761], [110.16352081, -7.8533349], [110.14792633, -7.85532141], [110.1394043, -7.86774349], [110.11790466, -7.88882399], [110.10889435, -7.90215635], [110.11128998, -7.88123846]]]}, "properties": {"fid": 671, "GID_0": "IDN", "NAME_0": "Indonesia", "GID_1": "IDN.5_1", "NAME_1": "DI Yogyakarta", "NL_NAME_1": null, "GID_2": "IDN.5.5_1", "NAME_2": "Kulon Progo", "NL_NAME_2": null, "GID_3": "IDN.5.5.7_1", "NAME_3": "Pengasih", "VARNAME_3": null, "NL_NAME_3": null, "TYPE_3": "Kecamatan", "ENGTYPE_3": "Sub-district", "CC_3": "3401070", "HASC_3": null}, "id": 671}, {"type": "Feature", "geometry": {"type": "Polygon", "coordinates": [[[110.1337204, -7.71202707], [110.13088989, -7.7016573], [110.13794708, -7.69342899], [110.11891174, -7.67069626], [110.13082886, -7.65456104], [110.14179993, -7.64496136], [110.15691376, -7.64624739], [110.16563416, -7.64889956], [110.19248199, -7.64478254], [110.20529938, -7.65180492], [110.21389771, -7.67635059], [110.20846558, -7.68256855], [110.20543671, -7.70118999], [110.21294403, -7.70890379], [110.18560028, -7.7203269], [110.16903687, -7.71483564], [110.16321564, -7.71932173], [110.14040375, -7.71650171], [110.1337204, -7.71202707]]]}, "properties": {"fid": 672, "GID_0": "IDN", "NAME_0": "Indonesia", "GID_1": "IDN.5_1", "NAME_1": "DI Yogyakarta", "NL_NAME_1": null, "GID_2": "IDN.5.5_1", "NAME_2": "Kulon Progo", "NL_NAME_2": null, "GID_3": "IDN.5.5.8_1", "NAME_3": "Samigaluh", "VARNAME_3": null, "NL_NAME_3": null, "TYPE_3": "Kecamatan", "ENGTYPE_3": "Sub-district", "CC_3": "3401120", "HASC_3": null}, "id": 672}, {"type": "Feature", "geometry": {"type": "Polygon", "coordinates": [[[110.18826294, -7.90249157], [110.19429016, -7.89267969], [110.19711304, -7.87578964], [110.19773865, -7.85439682], [110.18071747, -7.8367734], [110.18221283, -7.82529545], [110.19612885, -7.81868601], [110.20435333, -7.8216958], [110.2088623, -7.80925798], [110.22875977, -7.80476761], [110.23342896, -7.81499577], [110.23335266, -7.82460976], [110.22312927, -7.84015226], [110.25395203, -7.86408472], [110.26869202, -7.88525581], [110.25487518, -7.88537264], [110.2256546, -7.90620375], [110.20320129, -7.90038395], [110.18826294, -7.90249157]]]}, "properties": {"fid": 673, "GID_0": "IDN", "NAME_0": "Indonesia", "GID_1": "IDN.5_1", "NAME_1": "DI Yogyakarta", "NL_NAME_1": null, "GID_2": "IDN.5.5_1", "NAME_2": "Kulon Progo", "NL_NAME_2": null, "GID_3": "IDN.5.5.9_1", "NAME_3": "Sentolo", "VARNAME_3": null, "NL_NAME_3": null, "TYPE_3": "Kecamatan", "ENGTYPE_3": "Sub-district", "CC_3": "3401060", "HASC_3": null}, "id": 673}, {"type": "Feature", "geometry": {"type": "Polygon", "coordinates": [[[110.10889435, -7.90215635], [110.0970993, -7.910357], [110.08644867, -7.90267801], [110.07447815, -7.91836882], [110.04317474, -7.90583229], [110.01966095, -7.89167404], [110.02932739, -7.89272976], [110.0419693, -7.88346386], [110.04415894, -7.87148285], [110.06811523, -7.87188053], [110.0940094, -7.86250687], [110.10974121, -7.86737347], [110.11128998, -7.88123846], [110.10889435, -7.90215635]]]}, "properties": {"fid": 674, "GID_0": "IDN", "NAME_0": "Indonesia", "GID_1": "IDN.5_1", "NAME_1": "DI Yogyakarta", "NL_NAME_1": null, "GID_2": "IDN.5.5_1", "NAME_2": "Kulon Progo", "NL_NAME_2": null, "GID_3": "IDN.5.5.10_1", "NAME_3": "Temon", "VARNAME_3": null, "NL_NAME_3": null, "TYPE_3": "Kecamatan", "ENGTYPE_3": "Sub-district", "CC_3": "3401010", "HASC_3": null}, "id": 674}, {"type": "Feature", "geometry": {"type": "Polygon", "coordinates": [[[110.10889435, -7.90215635], [110.11790466, -7.88882399], [110.1394043, -7.86774349], [110.14792633, -7.85532141], [110.16352081, -7.8533349], [110.17449188, -7.86270761], [110.17436981, -7.87454367], [110.15364838, -7.88232517], [110.15255737, -7.90352535], [110.13752747, -7.90943527], [110.11639404, -7.91122103], [110.10496521, -7.93157434], [110.07447815, -7.91836882], [110.08644867, -7.90267801], [110.0970993, -7.910357], [110.10889435, -7.90215635]]]}, "properties": {"fid": 675, "GID_0": "IDN", "NAME_0": "Indonesia", "GID_1": "IDN.5_1", "NAME_1": "DI Yogyakarta", "NL_NAME_1": null, "GID_2": "IDN.5.5_1", "NAME_2": "Kulon Progo", "NL_NAME_2": null, "GID_3": "IDN.5.5.11_1", "NAME_3": "Wates", "VARNAME_3": null, "NL_NAME_3": null, "TYPE_3": "Kecamatan", "ENGTYPE_3": "Sub-district", "CC_3": "3401020", "HASC_3": null}, "id": 675}, {"type": "Feature", "geometry": {"type": "Polygon", "coordinates": [[[110.42993927, -7.83583355], [110.42156982, -7.82138109], [110.42160034, -7.79057503], [110.43927002, -7.78486586], [110.45834351, -7.7818799], [110.46730042, -7.78587008], [110.46587372, -7.80016422], [110.48763275, -7.81256771], [110.48551178, -7.81845093], [110.47936249, -7.82490063], [110.4602356, -7.81967258], [110.44379425, -7.82392979], [110.42993927, -7.83583355]]]}, "properties": {"fid": 676, "GID_0": "IDN", "NAME_0": "Indonesia", "GID_1": "IDN.5_1", "NAME_1": "DI Yogyakarta", "NL_NAME_1": null, "GID_2": "IDN.5.6_1", "NAME_2": "Sleman", "NL_NAME_2": null, "GID_3": "IDN.5.6.1_1", "NAME_3": "Berbah", "VARNAME_3": null, "NL_NAME_3": null, "TYPE_3": "Kecamatan", "ENGTYPE_3": "Sub-district", "CC_3": "3404080", "HASC_3": null}, "id": 676}, {"type": "Feature", "geometry": {"type": "Polygon", "coordinates": [[[110.43061829, -7.66782999], [110.42741394, -7.625175], [110.43054199, -7.60766697], [110.44199371, -7.58995533], [110.44443512, -7.57177114], [110.45874023, -7.56752872], [110.46325684, -7.60474825], [110.46851349, -7.61778212], [110.46849823, -7.63720655], [110.47200012, -7.65337896], [110.47735596, -7.6777668], [110.47348785, -7.67181015], [110.45832825, -7.67902994], [110.43145752, -7.67320013], [110.43061829, -7.66782999]]]}, "properties": {"fid": 677, "GID_0": "IDN", "NAME_0": "Indonesia", "GID_1": "IDN.5_1", "NAME_1": "DI Yogyakarta", "NL_NAME_1": null, "GID_2": "IDN.5.6_1", "NAME_2": "Sleman", "NL_NAME_2": null, "GID_3": "IDN.5.6.1_1", "NAME_3": "Cangkringan", "VARNAME_3": null, "NL_NAME_3": null, "TYPE_3": "Kecamatan", "ENGTYPE_3": "Sub-district", "CC_3": "3404170", "HASC_3": null}, "id": 677}, {"type": "Feature", "geometry": {"type": "Polygon", "coordinates": [[[110.37007904, -7.77522373], [110.3693161, -7.77404976], [110.37623596, -7.77171278], [110.37830353, -7.75351429], [110.38614655, -7.75133848], [110.38054657, -7.74385786], [110.40870667, -7.74735975], [110.41660309, -7.75187016], [110.44743347, -7.74733973], [110.44088745, -7.75406075], [110.43927002, -7.78486586], [110.42160034, -7.79057503], [110.39711761, -7.78828955], [110.39054108, -7.78039646], [110.37007904, -7.77522373]]]}, "properties": {"fid": 678, "GID_0": "IDN", "NAME_0": "Indonesia", "GID_1": "IDN.5_1", "NAME_1": "DI Yogyakarta", "NL_NAME_1": null, "GID_2": "IDN.5.6_1", "NAME_2": "Sleman", "NL_NAME_2": null, "GID_3": "IDN.5.6.2_1", "NAME_3": "Depok", "VARNAME_3": null, "NL_NAME_3": null, "TYPE_3": "Kecamatan", "ENGTYPE_3": "Sub-district", "CC_3": "3404070", "HASC_3": null}, "id": 678}, {"type": "Feature", "geometry": {"type": "Polygon", "coordinates": [[[110.28830719, -7.8332119], [110.28202057, -7.806252], [110.29039001, -7.79383898], [110.31417084, -7.79279566], [110.32479095, -7.78322315], [110.32911682, -7.76448011], [110.33766174, -7.7467351], [110.34827423, -7.73597765], [110.35513306, -7.74066019], [110.35218811, -7.76635408], [110.35102844, -7.76822138], [110.34364319, -7.79186392], [110.33011627, -7.80480766], [110.31478119, -7.80891418], [110.31698608, -7.81988764], [110.28830719, -7.8332119]]]}, "properties": {"fid": 679, "GID_0": "IDN", "NAME_0": "Indonesia", "GID_1": "IDN.5_1", "NAME_1": "DI Yogyakarta", "NL_NAME_1": null, "GID_2": "IDN.5.6_1", "NAME_2": "Sleman", "NL_NAME_2": null, "GID_3": "IDN.5.6.3_1", "NAME_3": "Gamping", "VARNAME_3": null, "NL_NAME_3": null, "TYPE_3": "Kecamatan", "ENGTYPE_3": "Sub-district", "CC_3": "3404050", "HASC_3": null}, "id": 679}, {"type": "Feature", "geometry": {"type": "Polygon", "coordinates": [[[110.29039001, -7.79383898], [110.28692627, -7.78412676], [110.27444458, -7.77829361], [110.26281738, -7.76725054], [110.26818085, -7.75343275], [110.26514435, -7.74037409], [110.27607727, -7.73759937], [110.29065704, -7.7583065], [110.30712128, -7.75833988], [110.31526947, -7.74503994], [110.32911682, -7.76448011], [110.32479095, -7.78322315], [110.31417084, -7.79279566], [110.29039001, -7.79383898]]]}, "properties": {"fid": 680, "GID_0": "IDN", "NAME_0": "Indonesia", "GID_1": "IDN.5_1", "NAME_1": "DI Yogyakarta", "NL_NAME_1": null, "GID_2": "IDN.5.6_1", "NAME_2": "Sleman", "NL_NAME_2": null, "GID_3": "IDN.5.6.4_1", "NAME_3": "Godean", "VARNAME_3": null, "NL_NAME_3": null, "TYPE_3": "Kecamatan", "ENGTYPE_3": "Sub-district", "CC_3": "3404040", "HASC_3": null}, "id": 680}, {"type": "Feature", "geometry": {"type": "Polygon", "coordinates": [[[110.46730042, -7.78587008], [110.45834351, -7.7818799], [110.43927002, -7.78486586], [110.44088745, -7.75406075], [110.44743347, -7.74733973], [110.44033051, -7.71921015], [110.46704865, -7.70910978], [110.47879028, -7.72151995], [110.48297119, -7.7028389], [110.48696136, -7.72058678], [110.49105072, -7.73886251], [110.48947144, -7.75314522], [110.48177338, -7.76810503], [110.46730042, -7.78587008]]]}, "properties": {"fid": 681, "GID_0": "IDN", "NAME_0": "Indonesia", "GID_1": "IDN.5_1", "NAME_1": "DI Yogyakarta", "NL_NAME_1": null, "GID_2": "IDN.5.6_1", "NAME_2": "Sleman", "NL_NAME_2": null, "GID_3": "IDN.5.6.5_1", "NAME_3": "Kalasan", "VARNAME_3": null, "NL_NAME_3": null, "TYPE_3": "Kecamatan", "ENGTYPE_3": "Sub-district", "CC_3": "3404100", "HASC_3": null}, "id": 681}, {"type": "Feature", "geometry": {"type": "Polygon", "coordinates": [[[110.27449036, -7.7090745], [110.28149414, -7.72671223], [110.27607727, -7.73759937], [110.26514435, -7.74037409], [110.25727081, -7.75957584], [110.22672272, -7.7522769], [110.21955872, -7.7536931], [110.21648407, -7.73831654], [110.22151184, -7.73386002], [110.23256683, -7.71373606], [110.26173401, -7.70484161], [110.26793671, -7.70727491], [110.27449036, -7.7090745]]]}, "properties": {"fid": 682, "GID_0": "IDN", "NAME_0": "Indonesia", "GID_1": "IDN.5_1", "NAME_1": "DI Yogyakarta", "NL_NAME_1": null, "GID_2": "IDN.5.6_1", "NAME_2": "Sleman", "NL_NAME_2": null, "GID_3": "IDN.5.6.6_1", "NAME_3": "Minggir", "VARNAME_3": null, "NL_NAME_3": null, "TYPE_3": "Kecamatan", "ENGTYPE_3": "Sub-district", "CC_3": "3404020", "HASC_3": null}, "id": 682}, {"type": "Feature", "geometry": {"type": "Polygon", "coordinates": [[[110.31526947, -7.74503994], [110.30587006, -7.74167013], [110.32232666, -7.72433233], [110.32515717, -7.70165682], [110.33466339, -7.70121002], [110.34708405, -7.72069263], [110.36435699, -7.72422266], [110.36977386, -7.72041178], [110.38054657, -7.74385786], [110.38614655, -7.75133848], [110.37830353, -7.75351429], [110.37623596, -7.77171278], [110.3693161, -7.77404976], [110.36933136, -7.77369785], [110.35218811, -7.76635408], [110.35513306, -7.74066019], [110.34827423, -7.73597765], [110.33766174, -7.7467351], [110.32911682, -7.76448011], [110.31526947, -7.74503994]]]}, "properties": {"fid": 683, "GID_0": "IDN", "NAME_0": "Indonesia", "GID_1": "IDN.5_1", "NAME_1": "DI Yogyakarta", "NL_NAME_1": null, "GID_2": "IDN.5.6_1", "NAME_2": "Sleman", "NL_NAME_2": null, "GID_3": "IDN.5.6.7_1", "NAME_3": "Mlati", "VARNAME_3": null, "NL_NAME_3": null, "TYPE_3": "Kecamatan", "ENGTYPE_3": "Sub-district", "CC_3": "3404060", "HASC_3": null}, "id": 683}, {"type": "Feature", "geometry": {"type": "Polygon", "coordinates": [[[110.28692627, -7.78412676], [110.27574158, -7.7918129], [110.23735809, -7.80905771], [110.23342896, -7.81499577], [110.22875977, -7.80476761], [110.23605347, -7.79804134], [110.22042847, -7.77672958], [110.21955872, -7.7536931], [110.22672272, -7.7522769], [110.25727081, -7.75957584], [110.26514435, -7.74037409], [110.26818085, -7.75343275], [110.26281738, -7.76725054], [110.27444458, -7.77829361], [110.28692627, -7.78412676]]]}, "properties": {"fid": 684, "GID_0": "IDN", "NAME_0": "Indonesia", "GID_1": "IDN.5_1", "NAME_1": "DI Yogyakarta", "NL_NAME_1": null, "GID_2": "IDN.5.6_1", "NAME_2": "Sleman", "NL_NAME_2": null, "GID_3": "IDN.5.6.8_1", "NAME_3": "Moyudan", "VARNAME_3": null, "NL_NAME_3": null, "TYPE_3": "Kecamatan", "ENGTYPE_3": "Sub-district", "CC_3": "3404010", "HASC_3": null}, "id": 684}, {"type": "Feature", "geometry": {"type": "Polygon", "coordinates": [[[110.40870667, -7.74735975], [110.38054657, -7.74385786], [110.36977386, -7.72041178], [110.38182831, -7.68781996], [110.37436676, -7.68302345], [110.37696838, -7.67218018], [110.38864899, -7.67588997], [110.39730835, -7.68661022], [110.4083786, -7.68704987], [110.41439819, -7.69242001], [110.42459106, -7.68450022], [110.43595123, -7.68848991], [110.43932343, -7.70717001], [110.4259491, -7.71785641], [110.41239166, -7.71994019], [110.40870667, -7.74735975]]]}, "properties": {"fid": 685, "GID_0": "IDN", "NAME_0": "Indonesia", "GID_1": "IDN.5_1", "NAME_1": "DI Yogyakarta", "NL_NAME_1": null, "GID_2": "IDN.5.6_1", "NAME_2": "Sleman", "NL_NAME_2": null, "GID_3": "IDN.5.6.9_1", "NAME_3": "Ngaglik", "VARNAME_3": null, "NL_NAME_3": null, "TYPE_3": "Kecamatan", "ENGTYPE_3": "Sub-district", "CC_3": "3404120", "HASC_3": null}, "id": 685}, {"type": "Feature", "geometry": {"type": "Polygon", "coordinates": [[[110.4083786, -7.68704987], [110.41689301, -7.67076015], [110.43061829, -7.66782999], [110.43145752, -7.67320013], [110.45832825, -7.67902994], [110.47348785, -7.67181015], [110.47735596, -7.6777668], [110.48297119, -7.7028389], [110.47879028, -7.72151995], [110.46704865, -7.70910978], [110.44033051, -7.71921015], [110.44743347, -7.74733973], [110.41660309, -7.75187016], [110.40870667, -7.74735975], [110.41239166, -7.71994019], [110.4259491, -7.71785641], [110.43932343, -7.70717001], [110.43595123, -7.68848991], [110.42459106, -7.68450022], [110.41439819, -7.69242001], [110.4083786, -7.68704987]]]}, "properties": {"fid": 686, "GID_0": "IDN", "NAME_0": "Indonesia", "GID_1": "IDN.5_1", "NAME_1": "DI Yogyakarta", "NL_NAME_1": null, "GID_2": "IDN.5.6_1", "NAME_2": "Sleman", "NL_NAME_2": null, "GID_3": "IDN.5.6.10_1", "NAME_3": "Ngemplak", "VARNAME_3": null, "NL_NAME_3": null, "TYPE_3": "Kecamatan", "ENGTYPE_3": "Sub-district", "CC_3": "3404110", "HASC_3": null}, "id": 686}, {"type": "Feature", "geometry": {"type": "Polygon", "coordinates": [[[110.4083786, -7.68704987], [110.39730835, -7.68661022], [110.38864899, -7.67588997], [110.37696838, -7.67218018], [110.40254974, -7.62715006], [110.41485596, -7.59566593], [110.41718292, -7.58059978], [110.41310883, -7.565382], [110.42076111, -7.55750895], [110.44610596, -7.54184151], [110.45874023, -7.56752872], [110.44443512, -7.57177114], [110.44199371, -7.58995533], [110.43054199, -7.60766697], [110.42741394, -7.625175], [110.43061829, -7.66782999], [110.41689301, -7.67076015], [110.4083786, -7.68704987]]]}, "properties": {"fid": 687, "GID_0": "IDN", "NAME_0": "Indonesia", "GID_1": "IDN.5_1", "NAME_1": "DI Yogyakarta", "NL_NAME_1": null, "GID_2": "IDN.5.6_1", "NAME_2": "Sleman", "NL_NAME_2": null, "GID_3": "IDN.5.6.11_1", "NAME_3": "Pakem", "VARNAME_3": null, "NL_NAME_3": null, "TYPE_3": "Kecamatan", "ENGTYPE_3": "Sub-district", "CC_3": "3404160", "HASC_3": null}, "id": 687}, {"type": "Feature", "geometry": {"type": "Polygon", "coordinates": [[[110.51951599, -7.83097363], [110.51009369, -7.82288647], [110.49215698, -7.82276487], [110.48551178, -7.81845093], [110.48763275, -7.81256771], [110.46587372, -7.80016422], [110.46730042, -7.78587008], [110.48177338, -7.76810503], [110.48947144, -7.75314522], [110.49105072, -7.73886251], [110.49176788, -7.76680517], [110.50708771, -7.76897192], [110.51119995, -7.77742672], [110.52385712, -7.78611422], [110.53040314, -7.79790878], [110.54395294, -7.79377174], [110.54653168, -7.79802656], [110.5426712, -7.82149887], [110.51951599, -7.83097363]]]}, "properties": {"fid": 688, "GID_0": "IDN", "NAME_0": "Indonesia", "GID_1": "IDN.5_1", "NAME_1": "DI Yogyakarta", "NL_NAME_1": null, "GID_2": "IDN.5.6_1", "NAME_2": "Sleman", "NL_NAME_2": null, "GID_3": "IDN.5.6.12_1", "NAME_3": "Prambanan", "VARNAME_3": null, "NL_NAME_3": null, "TYPE_3": "Kecamatan", "ENGTYPE_3": "Sub-district", "CC_3": "3404090", "HASC_3": null}, "id": 688}, {"type": "Feature", "geometry": {"type": "Polygon", "coordinates": [[[110.27607727, -7.73759937], [110.28149414, -7.72671223], [110.27449036, -7.7090745], [110.29107666, -7.70781612], [110.30712891, -7.69418764], [110.32515717, -7.70165682], [110.32232666, -7.72433233], [110.30587006, -7.74167013], [110.31526947, -7.74503994], [110.30712128, -7.75833988], [110.29065704, -7.7583065], [110.27607727, -7.73759937]]]}, "properties": {"fid": 689, "GID_0": "IDN", "NAME_0": "Indonesia", "GID_1": "IDN.5_1", "NAME_1": "DI Yogyakarta", "NL_NAME_1": null, "GID_2": "IDN.5.6_1", "NAME_2": "Sleman", "NL_NAME_2": null, "GID_3": "IDN.5.6.13_1", "NAME_3": "Seyegan", "VARNAME_3": null, "NL_NAME_3": null, "TYPE_3": "Kecamatan", "ENGTYPE_3": "Sub-district", "CC_3": "3404030", "HASC_3": null}, "id": 689}, {"type": "Feature", "geometry": {"type": "Polygon", "coordinates": [[[110.32515717, -7.70165682], [110.30712891, -7.69418764], [110.31669617, -7.67822027], [110.32868958, -7.6802516], [110.34365845, -7.6641798], [110.36035156, -7.66884995], [110.37436676, -7.68302345], [110.38182831, -7.68781996], [110.36977386, -7.72041178], [110.36435699, -7.72422266], [110.34708405, -7.72069263], [110.33466339, -7.70121002], [110.32515717, -7.70165682]]]}, "properties": {"fid": 690, "GID_0": "IDN", "NAME_0": "Indonesia", "GID_1": "IDN.5_1", "NAME_1": "DI Yogyakarta", "NL_NAME_1": null, "GID_2": "IDN.5.6_1", "NAME_2": "Sleman", "NL_NAME_2": null, "GID_3": "IDN.5.6.14_1", "NAME_3": "Sleman", "VARNAME_3": null, "NL_NAME_3": null, "TYPE_3": "Kecamatan", "ENGTYPE_3": "Sub-district", "CC_3": "3404130", "HASC_3": null}, "id": 690}, {"type": "Feature", "geometry": {"type": "Polygon", "coordinates": [[[110.26793671, -7.70727491], [110.27041626, -7.70567083], [110.28465271, -7.68712807], [110.29131317, -7.67236614], [110.30410767, -7.65489244], [110.33093262, -7.63837004], [110.33804321, -7.6304965], [110.36512756, -7.61510563], [110.35221863, -7.63617992], [110.35192871, -7.64498997], [110.34365845, -7.6641798], [110.32868958, -7.6802516], [110.31669617, -7.67822027], [110.30712891, -7.69418764], [110.29107666, -7.70781612], [110.27449036, -7.7090745], [110.26793671, -7.70727491]]]}, "properties": {"fid": 691, "GID_0": "IDN", "NAME_0": "Indonesia", "GID_1": "IDN.5_1", "NAME_1": "DI Yogyakarta", "NL_NAME_1": null, "GID_2": "IDN.5.6_1", "NAME_2": "Sleman", "NL_NAME_2": null, "GID_3": "IDN.5.6.15_1", "NAME_3": "Tempel", "VARNAME_3": null, "NL_NAME_3": null, "TYPE_3": "Kecamatan", "ENGTYPE_3": "Sub-district", "CC_3": "3404140", "HASC_3": null}, "id": 691}, {"type": "Feature", "geometry": {"type": "Polygon", "coordinates": [[[110.37696838, -7.67218018], [110.37436676, -7.68302345], [110.36035156, -7.66884995], [110.34365845, -7.6641798], [110.35192871, -7.64498997], [110.35221863, -7.63617992], [110.36512756, -7.61510563], [110.39638519, -7.5891571], [110.41310883, -7.565382], [110.41718292, -7.58059978], [110.41485596, -7.59566593], [110.40254974, -7.62715006], [110.37696838, -7.67218018]]]}, "properties": {"fid": 692, "GID_0": "IDN", "NAME_0": "Indonesia", "GID_1": "IDN.5_1", "NAME_1": "DI Yogyakarta", "NL_NAME_1": null, "GID_2": "IDN.5.6_1", "NAME_2": "Sleman", "NL_NAME_2": null, "GID_3": "IDN.5.6.16_1", "NAME_3": "Turi", "VARNAME_3": null, "NL_NAME_3": null, "TYPE_3": "Kecamatan", "ENGTYPE_3": "Sub-district", "CC_3": "3404150", "HASC_3": null}, "id": 692}]}