{"type": "FeatureCollection", "features": [{"type": "Feature", "geometry": {"type": "Polygon", "coordinates": [[[110.3400116, -8.02804661], [110.27094269, -8.00831509], [110.20529938, -7.98387527], [110.21472931, -7.97864103], [110.23168945, -7.95969582], [110.24684143, -7.92899847], [110.25708771, -7.9234004], [110.27065277, -7.9259572], [110.27391815, -7.90962172], [110.27265167, -7.89090681], [110.25714874, -7.86651707], [110.22312927, -7.84015226], [110.23335266, -7.82460976], [110.23342896, -7.81499577], [110.23735809, -7.80905771], [110.27574158, -7.7918129], [110.28156281, -7.7846632], [110.29043579, -7.7892065], [110.28202057, -7.806252], [110.28762054, -7.83139896], [110.30627441, -7.82654476], [110.31698608, -7.81988764], [110.31478119, -7.80891418], [110.33011627, -7.80480766], [110.34364319, -7.79186392], [110.35102844, -7.76822138], [110.34838104, -7.79862785], [110.34462738, -7.80687809], [110.35153198, -7.81350088], [110.35182953, -7.82572556], [110.37516785, -7.82443523], [110.39433289, -7.83717489], [110.40490723, -7.83096409], [110.4022522, -7.80263376], [110.39711761, -7.78828955], [110.42099762, -7.78634691], [110.42156982, -7.82138109], [110.43700409, -7.82823563], [110.4602356, -7.81967258], [110.47936249, -7.82490063], [110.51009369, -7.82288647], [110.51951599, -7.83097363], [110.51633453, -7.83762693], [110.49005127, -7.83765221], [110.4839325, -7.84038639], [110.46754456, -7.86670828], [110.47686768, -7.88828182], [110.49655151, -7.89297247], [110.49829865, -7.90084362], [110.49347687, -7.93139887], [110.48781586, -7.94517803], [110.47625732, -7.94367218], [110.47047424, -7.96210146], [110.45487976, -7.95163774], [110.443573, -7.9520545], [110.44409943, -7.9656105], [110.42204285, -7.9735055], [110.39741516, -7.96990013], [110.39682007, -7.9806776], [110.38085175, -7.9820447], [110.3664093, -7.97463322], [110.35604095, -7.97886133], [110.35015869, -7.98867178], [110.3312149, -7.99894094], [110.32978058, -8.00912285], [110.3400116, -8.02804661]]]}, "properties": {"fid": 51, "GID_0": "IDN", "NAME_0": "Indonesia", "GID_1": "IDN.5_1", "NAME_1": "DI Yogyakarta", "NL_NAME_1": null, "GID_2": "IDN.5.1_1", "NAME_2": "Bantul", "VARNAME_2": null, "NL_NAME_2": null, "TYPE_2": "Kabupaten", "ENGTYPE_2": "Regency", "CC_2": "3402", "HASC_2": "ID.YO.BA"}, "id": 51}, {"type": "Feature", "geometry": {"type": "Polygon", "coordinates": [[[110.3400116, -8.02804661], [110.32978058, -8.00912285], [110.3312149, -7.99894094], [110.35015869, -7.98867178], [110.35604095, -7.97886133], [110.3664093, -7.97463322], [110.38085175, -7.9820447], [110.39682007, -7.9806776], [110.39741516, -7.96990013], [110.42204285, -7.9735055], [110.44409943, -7.9656105], [110.443573, -7.9520545], [110.45487976, -7.95163774], [110.47047424, -7.96210146], [110.47625732, -7.94367218], [110.48781586, -7.94517803], [110.49347687, -7.93139887], [110.49829865, -7.90084362], [110.49655151, -7.89297247], [110.47686768, -7.88828182], [110.46754456, -7.86670828], [110.4839325, -7.84038639], [110.49005127, -7.83765221], [110.51633453, -7.83762693], [110.51951599, -7.83097363], [110.53141022, -7.82360601], [110.54236603, -7.8235364], [110.54553986, -7.81571341], [110.54395294, -7.79377174], [110.56361389, -7.78244877], [110.58482361, -7.79090738], [110.58877563, -7.80733633], [110.60010529, -7.80669403], [110.60390472, -7.79835033], [110.62667847, -7.80285263], [110.64700317, -7.79524469], [110.65800476, -7.80477476], [110.66355896, -7.79383278], [110.67987823, -7.80653286], [110.69080353, -7.80817556], [110.70870209, -7.80529261], [110.71260071, -7.79273224], [110.7239151, -7.79442835], [110.74302673, -7.80832624], [110.74537659, -7.81839609], [110.75636292, -7.82733393], [110.77017212, -7.8081131], [110.78567505, -7.81668663], [110.78248596, -7.84647799], [110.7882843, -7.85502481], [110.77831268, -7.87738943], [110.77783203, -7.89191723], [110.7710495, -7.90204096], [110.77130127, -7.9474349], [110.76828766, -7.95564222], [110.76833344, -7.98016405], [110.76218414, -7.99179459], [110.76174927, -8.003479], [110.75417328, -8.02579021], [110.76807404, -8.04674053], [110.77851868, -8.06764507], [110.77931976, -8.08301449], [110.78761292, -8.10323238], [110.7898941, -8.1255188], [110.78549957, -8.13970757], [110.79019165, -8.15830421], [110.80032349, -8.16205215], [110.81641388, -8.15413761], [110.82762146, -8.17096138], [110.83318329, -8.17363834], [110.83419037, -8.19064903], [110.82982635, -8.20141983], [110.80754852, -8.20062828], [110.79727936, -8.19115353], [110.77482605, -8.19675159], [110.74603271, -8.19584274], [110.73786163, -8.19240856], [110.71813202, -8.19950962], [110.69668579, -8.18719959], [110.67779541, -8.18237591], [110.64431, -8.16859055], [110.60702515, -8.1469574], [110.59077454, -8.14742661], [110.57939148, -8.13824463], [110.55348969, -8.13342571], [110.52778625, -8.1316309], [110.51600647, -8.12335587], [110.47695923, -8.10987377], [110.46748352, -8.11035252], [110.45027924, -8.10049629], [110.43891144, -8.10070133], [110.43473816, -8.09355068], [110.40888214, -8.07932091], [110.38716125, -8.07232952], [110.37516785, -8.07158089], [110.35954285, -8.05689716], [110.3400116, -8.02804661]]]}, "properties": {"fid": 52, "GID_0": "IDN", "NAME_0": "Indonesia", "GID_1": "IDN.5_1", "NAME_1": "DI Yogyakarta", "NL_NAME_1": null, "GID_2": "IDN.5.1_1", "NAME_2": "Gunung Kidul", "VARNAME_2": null, "NL_NAME_2": null, "TYPE_2": "Kabupaten", "ENGTYPE_2": "Regency", "CC_2": "3403", "HASC_2": "ID.YO.GK"}, "id": 52}, {"type": "Feature", "geometry": {"type": "Polygon", "coordinates": [[[110.35102844, -7.76822138], [110.38074493, -7.7802453], [110.39054108, -7.78039646], [110.39711761, -7.78828955], [110.4022522, -7.80263376], [110.40490723, -7.83096409], [110.39433289, -7.83717489], [110.37516785, -7.82443523], [110.35182953, -7.82572556], [110.35153198, -7.81350088], [110.34462738, -7.80687809], [110.34838104, -7.79862785], [110.35102844, -7.76822138]]]}, "properties": {"fid": 53, "GID_0": "IDN", "NAME_0": "Indonesia", "GID_1": "IDN.5_1", "NAME_1": "DI Yogyakarta", "NL_NAME_1": null, "GID_2": "IDN.5.2_1", "NAME_2": "Kota Yogyakarta", "VARNAME_2": null, "NL_NAME_2": null, "TYPE_2": "Kota", "ENGTYPE_2": "City", "CC_2": "3471", "HASC_2": "ID.YO.YO"}, "id": 53}, {"type": "Feature", "geometry": {"type": "Polygon", "coordinates": [[[110.20529938, -7.98387527], [110.16637421, -7.9606328], [110.14282227, -7.95028877], [110.09376526, -7.92616415], [110.04317474, -7.90583229], [110.01966095, -7.89167404], [110.02932739, -7.89272976], [110.04203033, -7.8851347], [110.04351807, -7.85982656], [110.05940247, -7.84130144], [110.05899811, -7.82368708], [110.06269073, -7.8139739], [110.08078766, -7.80661011], [110.09214783, -7.78608561], [110.11270142, -7.77691126], [110.1139679, -7.76486444], [110.12962341, -7.74752092], [110.13252258, -7.71601105], [110.13794708, -7.69342899], [110.11793518, -7.66991663], [110.13650513, -7.65430641], [110.14179993, -7.64496136], [110.16563416, -7.64889956], [110.19248199, -7.64478254], [110.20559692, -7.6514802], [110.21400452, -7.64771605], [110.24279785, -7.65315294], [110.25173187, -7.64245653], [110.26365662, -7.6459322], [110.26711273, -7.66306114], [110.26445007, -7.68143892], [110.27041626, -7.70567083], [110.26173401, -7.70484161], [110.23256683, -7.71373606], [110.21648407, -7.73831654], [110.22200012, -7.75978374], [110.22042847, -7.77672958], [110.23605347, -7.79804134], [110.22842407, -7.80586338], [110.23342896, -7.81499577], [110.23335266, -7.82460976], [110.22312927, -7.84015226], [110.25714874, -7.86651707], [110.27265167, -7.89090681], [110.27391815, -7.90962172], [110.27065277, -7.9259572], [110.25708771, -7.9234004], [110.24684143, -7.92899847], [110.23168945, -7.95969582], [110.21472931, -7.97864103], [110.20529938, -7.98387527]]]}, "properties": {"fid": 54, "GID_0": "IDN", "NAME_0": "Indonesia", "GID_1": "IDN.5_1", "NAME_1": "DI Yogyakarta", "NL_NAME_1": null, "GID_2": "IDN.5.3_1", "NAME_2": "Kulon Progo", "VARNAME_2": null, "NL_NAME_2": null, "TYPE_2": "Kabupaten", "ENGTYPE_2": "Regency", "CC_2": "3401", "HASC_2": "ID.YO.KP"}, "id": 54}, {"type": "Feature", "geometry": {"type": "Polygon", "coordinates": [[[110.51951599, -7.83097363], [110.51009369, -7.82288647], [110.47936249, -7.82490063], [110.4602356, -7.81967258], [110.43700409, -7.82823563], [110.42156982, -7.82138109], [110.42099762, -7.78634691], [110.39711761, -7.78828955], [110.39054108, -7.78039646], [110.38074493, -7.7802453], [110.35102844, -7.76822138], [110.34364319, -7.79186392], [110.33011627, -7.80480766], [110.31478119, -7.80891418], [110.31698608, -7.81988764], [110.30627441, -7.82654476], [110.28762054, -7.83139896], [110.28202057, -7.806252], [110.29043579, -7.7892065], [110.28156281, -7.7846632], [110.27574158, -7.7918129], [110.23735809, -7.80905771], [110.23342896, -7.81499577], [110.22842407, -7.80586338], [110.23605347, -7.79804134], [110.22042847, -7.77672958], [110.22200012, -7.75978374], [110.21648407, -7.73831654], [110.23256683, -7.71373606], [110.26173401, -7.70484161], [110.27041626, -7.70567083], [110.28465271, -7.68712807], [110.29131317, -7.67236614], [110.30410767, -7.65489244], [110.32384491, -7.64422894], [110.33804321, -7.6304965], [110.35450745, -7.62283659], [110.38482666, -7.59996271], [110.40008545, -7.58478498], [110.41596985, -7.56116438], [110.44610596, -7.54184151], [110.45722198, -7.56011295], [110.46325684, -7.60474825], [110.46851349, -7.61778212], [110.46849823, -7.63720655], [110.49180603, -7.7421093], [110.49176788, -7.76680517], [110.50708771, -7.76897192], [110.51119995, -7.77742672], [110.52948761, -7.79083252], [110.54395294, -7.79377174], [110.54553986, -7.81571341], [110.54236603, -7.8235364], [110.53141022, -7.82360601], [110.51951599, -7.83097363]]]}, "properties": {"fid": 55, "GID_0": "IDN", "NAME_0": "Indonesia", "GID_1": "IDN.5_1", "NAME_1": "DI Yogyakarta", "NL_NAME_1": null, "GID_2": "IDN.5.4_1", "NAME_2": "Sleman", "VARNAME_2": null, "NL_NAME_2": null, "TYPE_2": "Kabupaten", "ENGTYPE_2": "Regency", "CC_2": "3404", "HASC_2": "ID.YO.SL"}, "id": 55}]}